store,address,Latitude,Longitude
교대점,서울특별시 서초구 서초중앙로 95 1층,37.4903324,127.0139376
서초대로점,서울특별시 서초구 서초대로 314 정보통신공제조합회관,37.4940166,127.0158568
서초유원점,서울특별시 서초구 서초중앙로24길 35,37.4953788,127.0174629
남부터미널점,서울특별시 서초구 효령로 283 서경빌딩 1층,37.4849783,127.0150098
서초역점,서울특별시 서초구 반포대로 110,37.4898999,127.0090956
서초타운점,서울특별시 서초구 서초대로78길 32,37.4949613,127.0279878
강남역사거리점,서울특별시 서초구 서초대로77길 3 아라타워 1층,37.498044,127.0264112
강남우성점,서울특별시 강남구 강남대로 318 1층,37.4915374,127.0311781
올리브영 강남,서울특별시 강남구 강남대로 372,37.4959964,127.0290566
강남역센트럴점,서울특별시 강남구 테헤란로4길 6 1층,37.497342,127.029728
양재대로점,서울특별시 서초구 강남대로 267 1층,37.4871262,127.0323206
강남본점,서울특별시 서초구 강남대로 429 동일빌딩 1~3층,37.5007381,127.0257723
강남시티점,서울특별시 강남구 테헤란로1길 30 1층,37.500236,127.0274879
역삼점,서울특별시 강남구 테헤란로 115 서림빌딩 1층,37.4990285,127.029901
양재엘타워점,서울특별시 서초구 강남대로 213,37.482717,127.0349215
강남교보사거리점,서울특별시 강남구 강남대로 456 한석타워 2층,37.5030912,127.0255689
삼호가든사거리점,서울특별시 서초구 서초중앙로 239,37.5030662,127.010946
양재스타클래스점,서울특별시 강남구 남부순환로 2615,37.4851386,127.0358583
양재점,서울특별시 서초구 남부순환로 2606 1층,37.4843677,127.0359134
역삼역점,서울특별시 강남구 테헤란로 138 솔로몬역삼타워 1층,37.4995995,127.0342437
강남파이낸스점,서울특별시 강남구 테헤란로 152 강남파이낸스센터 지하2층,37.4999935,127.0365067
신논현역점,서울특별시 강남구 강남대로 480,37.5052347,127.0245531
남역삼점,서울특별시 강남구 논현로 318 메디빌딩 1층,37.5183227,127.0404292
신논현점,서울특별시 서초구 강남대로 507 1층,37.5071339,127.022678
강남엔터식스점,서울특별시 서초구 신반포로 지하 188 엔터식스 강남점,37.5045778,127.0056918
서래마을점,서울특별시 서초구 서래로 39 1층,37.4985085,126.9981973
센트럴시티점,서울특별시 서초구 신반포로 176,37.5041299,127.0030692
방배점,서울특별시 서초구 방배로 93,37.4825292,126.996588
NC강남점,서울특별시 서초구 잠원로 51 NC백화점 강남점 1층,37.509517,127.0073082
내방역점,서울특별시 서초구 방배로 184,37.4899917,126.9924614
언주역점,서울특별시 강남구 봉은사로 209,37.5078732,127.0349993
학동역점,서울특별시 강남구 학동로 177 태석빌딩 1층,37.5141463,127.0302717
방배카페거리점,서울특별시 서초구 방배중앙로 168 신정빌딩 1층,37.4768792,126.9848325
선릉아이타워점,서울특별시 강남구 테헤란로 326 역삼아이타워 1층 102호,37.5035856,127.0471808
신사점,서울특별시 강남구 도산대로 116 논현빌딩 1층,37.5165838,127.021501
타워팰리스점,서울특별시 강남구 언주로30길 39,37.4887091,127.0532038
선릉역점,서울특별시 강남구 선릉로 513,37.5052409,127.04829
올리브영 가로수길,서울특별시 강남구 도산대로 133,37.5178851,127.0229914
한티역점,서울특별시 강남구 선릉로 312 1층,37.4974998,127.0526427
가로수길입구점,서울특별시 강남구 도산대로 13길 5 1층,37.5181565,127.0231191
선릉로점,서울특별시 강남구 테헤란로64길 20 원동방빌딩 1층,37.5035716,127.0512697
선정릉역점,서울특별시 강남구 선릉로 602 1층,37.5106259,127.0439845
세관사거리점,서울특별시 강남구 학동로 235 영일빌딩 1층,37.5155421,127.0349654
방배이수점,서울특별시 서초구 동작대로 118 예다인프라자빌딩 1층,37.4869655,126.9827324
선릉타운점,서울특별시 강남구 테헤란로 411 성담빌딩 1층,37.5054325,127.0508253
강남구청역점,서울특별시 강남구 선릉로 703 1층,37.5176558,127.0407409
대치역점,서울특별시 강남구 남부순환로 2927,37.4935825,127.0603741
사당역지하상가점,서울특별시 동작구 동작대로 지하 3,37.480403,126.9816647
사당점,서울특별시 동작구 동작대로 29,37.49006,126.97817
대치점,서울특별시 강남구 도곡로 448 동서빌딩,37.4980724,127.0595468
양재하나로클럽점,서울특별시 서초구 청계산로 10 1층,37.4629917,127.0434134
사당역점,서울특별시 관악구 과천대로 941 지산빌딩,37.4746294,126.9814162
압구정타운점,서울특별시 강남구 논현로 842 압구정빌딩 1층,37.5240588,127.0287209
학동중앙점,서울특별시 강남구 도산대로 326,37.5223526,127.0377134
압구정점,서울특별시 강남구 논현로175길 6 1층,37.526327,127.0279079
코엑스몰점,서울특별시 강남구 테헤란로87길 22,37.5095948,127.0594292
남성역점,서울특별시 동작구 사당로 228,37.4834626,126.9728829
압구정역점,서울특별시 강남구 논현로 878 중산빌딩 1층,37.527127,127.028987
포이사거리점,서울특별시 강남구 논현로 82,37.4773465,127.0453232
학여울역점,서울특별시 강남구 영동대로 217,37.4981123,127.0683673
봉은사역점,서울특별시 강남구 영동대로 602,37.5145796,127.060586
압구정로데오점,서울특별시 강남구 압구정로50길 9,37.5276101,127.0382467
삼성점,서울특별시 강남구 테헤란로108길 22,37.5078919,127.0659124
청담사거리점,서울특별시 강남구 도산대로89길 8 엘에이치빌딩 1층,37.5250816,127.050588
낙성대인헌점,서울특별시 관악구 남부순환로248길 3 1층,37.4757153,126.9658448
순천향입구점,서울특별시 용산구 대사관로 71,37.5333591,127.0059705
한남오거리점,서울특별시 용산구 독서당로 65-1,37.533802,127.007749
동부이촌점,서울특별시 용산구 이촌로75길 16,37.52056,126.9743871
낙성대점,서울특별시 관악구 남부순환로 1909,37.4780739,126.9615951
올리브영 이태원,서울특별시 용산구 이태원로 180 스카이하이 2층,37.533286,126.989098
한남동점,서울특별시 용산구 이태원로 227,37.5355974,126.9988408
이태원입구점,서울특별시 용산구 이태원로 145,37.5345418,126.9898959
숭실대점,서울특별시 동작구 사당로 10 (상도동),37.4952808,126.9554244
중앙대점,서울특별시 동작구 흑석로 81,37.5070278,126.9585894
일원역점,서울특별시 강남구 일원로 115 삼성생명 일원동 빌딩 114호,37.4890175,127.0824833
관악로점,서울특별시 관악구 관악로 204 1층,37.4829083,126.9542726
서울대입구역점,서울특별시 관악구 남부순환로 1838,37.480389,126.953964
숭실대입구역점,서울특별시 동작구 상도로 358,37.4965983,126.9528988
서울대입구점,서울특별시 관악구 관악로 156 1층,37.4790837,126.9526808
올리브영 관악,서울특별시 관악구 관악로 171,37.4805149,126.9522165
신천점,서울특별시 송파구 올림픽로 116-1 신원빌딩 1층,37.5113636,127.0836165
서울숲역점,서울특별시 성동구 왕십리로 50 (성수동1가 656-335 1층),37.5418236,127.0449181
뚝섬유원지역점,서울특별시 광진구 능동로 7,37.5323053,127.0667564
석촌호수로점,서울특별시 송파구 석촌호수로 88 1층,37.5084731,127.086777
신용산역점,서울특별시 용산구 한강대로 95 (한강로2가 래미안용산),37.5326966,126.9705109
금호점,서울특별시 성동구 독서당로 302 1층,37.5475722,127.0227172
상도역점,서울특별시 동작구 양녕로 257,37.5031286,126.9472635
아이파크몰점,서울특별시 용산구 한강대로21나길 7 아이파크몰6층,37.5297886,126.964879
잠실학원사거리점,서울특별시 송파구 석촌호수로 130,37.5071579,127.0913749
봉천역점,서울특별시 관악구 남부순환로 1735,37.4825001,126.9430337
성동성수점,서울특별시 성동구 성수일로6길 47,37.5442438,127.0552721
건대몰오브케이점,서울특별시 광진구 아차산로30길 26 몰오브케이 1층 101-2호,37.5396907,127.066938
성수역점,서울특별시 성동구 아차산로 91,37.54527,127.0544682
배명사거리점,서울특별시 송파구 백제고분로 276 공익빌딩 1층,37.5021559,127.0972931
용산리첸시아점,서울특별시 용산구 백범로 341 외 1필지(원효로1가 리첸시아 용산) 리첸시아 에이동,37.5395434,126.9953786
스타시티점,서울특별시 광진구 아차산로 262 스타시티가 1층,37.5385577,127.0735892
올리브영 노량진,서울특별시 동작구 노량진로 162,37.5133706,126.9439197
건대입구점,서울특별시 광진구 동일로22길 115 1층,37.5407249,127.0704479
약수역점,서울특별시 중구 동호로 189,37.5547961,127.0101982
롯데월드점,서울특별시 송파구 올림픽로 240 (롯데월드 어드벤쳐 지하1층 매표소 인근),37.5111158,127.098167
서울타워점,서울특별시 용산구 남산공원길 105,37.5509473,126.9892965
수서역점,서울특별시 강남구 밤고개로1길 10,37.4879855,127.1017774
숙대입구역점,서울특별시 용산구 한강대로 285 (갈월동),37.5437202,126.971887
롯데마트행당역점,서울특별시 성동구 행당로 84 행당 한진타운상가 B2층,37.5555573,127.0289482
장승배기역점,서울특별시 동작구 장승배기로11가길 11 (상도동 상도파크자이),37.505486,126.938074
건대점,서울특별시 광진구 능동로 133,37.542805,127.0716555
노량진삼거리점,서울특별시 동작구 노량진로 124 1층,37.5132357,126.9396243
숙대점,서울특별시 용산구 청파로45길 19 복조빌딩 1층(올리브영 숙대점),37.5442281,126.9693667
세곡동점,서울특별시 강남구 헌릉로569길 21-36,37.466266,127.1167873
잠실역8호선점,서울특별시 송파구 올림픽로 305 잠실역8호선 지하상가 H7~10호,37.5149545,127.1042019
청구역점,서울특별시 중구 다산로 168 성월빌딩 일부,37.558404,127.0130084
구의역점,서울특별시 광진구 아차산로 378 한승빌딩 1층,37.5365126,127.0847377
녹두거리점,서울특별시 관악구 신림로 127 1층,37.4707698,126.9352458
잠실점,서울특별시 송파구 올림픽로 269 101호,37.5143367,127.1005715
잠실장미상가점,서울특별시 송파구 올림픽로35길 104 (신천동 7) 장미에이상가 내재 1동,37.5188607,127.0992536
신림역점,서울특별시 관악구 남부순환로 1619,37.4846038,126.9304905
트윈시티점,서울특별시 용산구 한강대로 366 B1,37.5507383,126.9727203
포도몰점,서울특별시 관악구 신림로 330 포도몰 지하1층,37.4838735,126.9302332
한양대점,서울특별시 성동구 마조로 11 1층,37.5589075,127.0406436
홈플러스잠실점,서울특별시 송파구 올림픽로35가길 16,37.5162099,127.1030143
신림로점,서울특별시 관악구 신림로 315,37.4824595,126.9296176
신림점,서울특별시 관악구 신림로 353,37.4857317,126.9291752
석촌역점,서울특별시 송파구 백제고분로 387,37.5064928,127.1085026
신대방삼거리역점,서울특별시 동작구 보라매로 113,37.4994248,126.927877
씨제이남산더센터점,서울특별시 중구 소월로2길 12 CJ빌딩,37.554564,126.9759423
왕십리엔터식스점,서울특별시 성동구 왕십리광장로 17 엔터식스 지하1층,37.5619571,127.0385267
왕십리역점,서울특별시 성동구 왕십리로 331 공명빌딩 1층,37.5625971,127.0327884
강변역점,서울특별시 광진구 강변역로4길 10,37.535315,127.0933914
송파구청점,서울특별시 송파구 오금로 87 잠실리시온 1층,37.5146546,127.107375
충무로역점,서울특별시 중구 퇴계로 222 구인빌딩 1층,37.5614986,126.9963924
공덕역점,서울특별시 마포구 백범로 199 메트로디오빌 1층,37.5434128,126.9528962
마포도화점,서울특별시 마포구 삼개로 20,37.5384749,126.9471956
서울스퀘어점,서울특별시 중구 한강대로 416 서울스퀘어빌딩 지하1층,37.5554652,126.9737482
제일제당센터점,서울특별시 중구 동호로 330 지하1층,37.563942,127.0032778
강변엔터식스점,서울특별시 광진구 광나루로56길 85 테크노마트 1층 테크노마트 1층,37.5351173,127.0957751
명동대로점,서울특별시 중구 퇴계로 120 1층,37.5605395,126.9850662
명동역점,서울특별시 중구 퇴계로 127 1층,37.5611147,126.9858338
보라매점,서울특별시 동작구 보라매로 5가길 16,37.4912431,126.9240825
상왕십리역점,서울특별시 성동구 왕십리로 382,37.5649226,127.0279499
신당역점,서울특별시 중구 다산로 258,37.5658043,127.0165817
롯데피트인동대문점,서울특별시 중구 을지로 264 롯데FIT-IN몰 6층,37.5657365,127.0069957
만리동점,서울특별시 중구 만리재로 139 서울역센트럴자이 상가 1층(신축),37.555136,126.9634788
동대문역사문화공원역점,서울특별시 중구 장충단로 251 1층,37.5671349,127.0080427
마포역점,서울특별시 마포구 마포대로 53 마포트라팰리스상가 115호,37.5415373,126.947251
방이시장점,서울특별시 송파구 백제고분로 464 1층,37.5116873,127.1134032
황학사거리점,서울특별시 성동구 왕십리로 410 센트라스 1층 158호,37.5695572,127.031966
공덕파크팰리스점,서울특별시 마포구 마포대로 143 마포공덕파크팰리스 108호,37.5472449,126.9530749
대방역점,서울특별시 영등포구 영등포로 422 1층,37.5122564,126.9247831
롯데마트송파점,서울특별시 송파구 중대로 80 롯데마트송파점 지하2층,37.4916854,127.117708
명동중앙점,서울특별시 중구 명동길 26 유네스코회관 1층,37.5635611,126.9836841
두타점,서울특별시 중구 장충단로 275 두산타워 4층,37.5691357,127.0090702
명동본점,서울특별시 중구 명동길 53 1~2층,37.5640418,126.9851813
보라매역점,서울특별시 동작구 여의대방로 142,37.4996936,126.9206827
올림픽대교북단점,서울특별시 광진구 아차산로 484,37.5406379,127.0956739
가락시장역점,서울특별시 송파구 중대로 105 가락 ID타워 1층,37.4935463,127.1200688
답십리역점,서울특별시 성동구 천호대로 302 (용답동),37.5655787,127.0536931
소공점,서울특별시 중구 남대문로7길 16 한국빌딩 1층,37.5641199,126.9811544
애오개역점,서울특별시 마포구 마포대로 201 마포트라펠리스 2차 1층,37.5522028,126.9554999
을지로입구역점,서울특별시 중구 명동3길 36 지하1층,37.5653097,126.9837168
장한평역점,서울특별시 동대문구 장한로 3,37.5621007,127.0645557
대한통운본사점,서울특별시 중구 세종대로9길 53 대한통운빌딩 지하1층,37.5615018,126.9729643
시청역점,서울특별시 중구 세종대로16길 1 1층,37.5635001,126.9771016
여의도역점,서울특별시 영등포구 여의나루로 61 한영회계법인빌딩 1층,37.5298161,126.9258923
문정역점,서울특별시 송파구 송파대로 167 B동 지하1층,37.4853459,127.1222177
송파아이파크점,서울특별시 송파구 법원로 55 송파아이파크 105호~108호,37.4941097,127.0106092
군자역점,서울특별시 광진구 천호대로 548,37.5566812,127.0789171
광장점,서울특별시 광진구 아차산로 537-17 광장힐스테이트 단지 내 상가 19호,37.5433454,127.0997083
씨지브이여의도점,서울특별시 영등포구 국제금융로 10,37.5249367,126.9252845
동묘앞역점,서울특별시 종로구 지봉로 37-1,37.5732904,127.0153217
신길점,서울특별시 영등포구 영등포로 358 대윤메디컬센터 1층,37.5140679,126.9183379
아차산역점,서울특별시 광진구 천호대로 671,37.5538892,127.0857152
종로2가점,서울특별시 종로구 종로12길 21 평구빌딩 1층,37.5690496,126.9859854
종로YBM점,서울특별시 종로구 종로 104,37.569921,126.9889372
NC송파점,서울특별시 송파구 충민로 66 NC 송파점 패션관 1층,37.477174,127.1256566
대흥역점,서울특별시 마포구 백범로 91,37.5481722,126.9416928
신대방역점,서울특별시 관악구 난곡로 357 1층,37.4858591,126.9134235
아현역점,서울특별시 서대문구 신촌로35길 10 103호,37.5577978,126.9554328
장지역점,서울특별시 송파구 충민로 66 1002(문정동) 지하1층,37.4847538,127.124996
종로점,서울특별시 종로구 종로 85 1층,37.5703952,126.9869679
종각점,서울특별시 종로구 종로 61 1층,37.570399,126.9842634
신설동역점,서울특별시 동대문구 왕산로 4 1층,37.5755994,127.024065
방이역점,서울특별시 송파구 마천로 41,37.4969724,127.1495879
종로1가점,서울특별시 종로구 종로 19 르미에르종로타운 1층,37.570938,126.9799483
태평로1가점,서울특별시 중구 세종대로21길 58,37.5688792,126.9761575
세종로점,서울특별시 종로구 세종대로 161 1층,37.5706653,126.9762916
정동점,서울특별시 중구 새문안로 26,37.5674659,126.9687591
홍대대학로점,서울특별시 종로구 대학로 57 홍익대대학로캠퍼스 내 1층,37.5764804,127.001457
국회의사당역점,서울특별시 영등포구 의사당대로 26,37.5265758,126.9181878
대림성모점,서울특별시 동작구 시흥대로 658 1층,37.4903375,126.9080654
서여의도점,서울특별시 영등포구 국회대로70길 15-1 극동브이아이피빌딩 1층,37.5295938,126.9203651
광나루역점,서울특별시 광진구 아차산로 607,37.5473667,127.106064
이대점,서울특별시 서대문구 이화여대길 18 1층,37.5576355,126.9459957
중곡점,서울특별시 광진구 면목로 127 신성그랜드타워 1층 102호,37.5648702,127.0805429
서강대점,서울특별시 마포구 백범로 21,37.5528076,126.9375259
이대중앙점,서울특별시 서대문구 이화여대7길 8 1층,37.5587941,126.945375
독립문점,서울특별시 종로구 통일로 168-1 경희궁 자이,37.5687103,126.9640659
안국점,서울특별시 종로구 율곡로 45 (안국동) 1층,37.5775227,126.983655
강동구청점,서울특별시 강동구 성내로 19,37.5302411,127.1228413
신림남부순환로점,서울특별시 관악구 남부순환로 1377,37.480112,126.9038296
신촌대로점,서울특별시 서대문구 신촌로 121 1층,37.556187,126.9392967
영등포역사점,서울특별시 영등포구 경인로 846,37.5154709,126.9066823
장안동사거리점,서울특별시 동대문구 장한로 129,37.5719615,127.0709178
개롱역점,서울특별시 송파구 오금로 412 성지빌딩,37.5019342,127.1245404
구로디지털단지역점,서울특별시 관악구 시흥대로 574,37.4839618,126.9029208
신촌로터리점,서울특별시 마포구 서강로 133 1층,37.5543692,126.935239
영등포역점,서울특별시 영등포구 경인로 847,37.5167125,126.906878
올리브영 신촌,서울특별시 서대문구 연세로 10,37.5563275,126.9370809
신촌역점,서울특별시 서대문구 신촌로 79,37.5559607,126.9351768
영등포역남부점,서울특별시 영등포구 영신로19길 23,37.5134947,126.9053979
혜화역점,서울특별시 종로구 대학로 122 흥사단회관 1층,37.5821722,127.0022167
신촌명물거리점,서울특별시 서대문구 명물길 54,37.5587669,126.9393144
대학로점,서울특별시 종로구 대명길 18 1층,37.5834591,127.0004736
대학로중앙점,서울특별시 종로구 대학로 144 1층,37.5839463,127.0020454
삼청동점,서울특별시 종로구 북촌로5길 54,37.5797425,126.9820488
구로디지털점,서울특별시 구로구 디지털로34길 43 코오롱싸이언스밸리 1차 1층,37.4851267,126.8988129
신촌연세점,서울특별시 서대문구 연세로 37 1층,37.5588323,126.9366673
구로호텔점,서울특별시 구로구 디지털로32길 72 1층,37.4831293,126.8988591
상수역점,서울특별시 마포구 와우산로 49 상수아뜨리에 1층,37.5544175,126.9236717
안암점,서울특별시 성북구 고려대로24길 8,37.5857411,127.0290456
은행나무사거리점,서울특별시 금천구 금하로 705,37.4516133,126.9083675
타임스퀘어신세계점,서울특별시 영등포구 영중로 15 타임스퀘어 지하1층,37.517007,126.9041419
타임스퀘어아트리움점,서울특별시 영등포구 영중로 15 타임스퀘어 3층 315호,37.517007,126.9041419
둔촌점,서울특별시 강동구 양재대로 1317 경일빌딩 1층,37.5239591,127.134339
천호엔터식스점,서울특별시 강동구 천호대로 지하 997 지하 1층 천호엔터식스 012호,37.5479598,127.1381989
천호중앙점,서울특별시 강동구 천호대로 1027 일동빌딩 1층,37.5381679,127.1262834
서울시립대점,서울특별시 동대문구 전농로 222 씨티프라자 104~105호,37.5838961,127.0536039
위례아이파크점,서울특별시 송파구 위례광장로 136,37.4800023,127.144229
천호현대점,서울특별시 강동구 올림픽로 664 1층,37.540481,127.1249608
홍대정문점,서울특별시 마포구 홍익로 4 1층,37.5531666,126.9241424
창천점,서울특별시 서대문구 신촌로 17,37.5581592,126.9289986
홍대중앙점,서울특별시 마포구 어울마당로 68 해창빌딩,37.5510635,126.9214755
거여역점,서울특별시 송파구 오금로 512,37.4926974,127.1455368
시흥사거리점,서울특별시 금천구 시흥대로 228 1층,37.4541861,126.901205
한성대역점,서울특별시 성북구 동소문로 18-1,37.589104,127.0082698
홈플러스금천점,서울특별시 금천구 시흥대로 391 홈플러스금천점 1층,37.4686308,126.8968974
올리브영 홍대,서울특별시 마포구 양화로 156 엘지팰리스 1층,37.5560805,126.9234453
돈암점,서울특별시 성북구 동소문로22길 39,37.5913212,127.018368
홈플러스영등포점,서울특별시 영등포구 당산로 42 홈플러스영등포점,37.5181504,126.8958956
홍대공항철도역점,서울특별시 마포구 양화로 183,37.558355,126.9251544
홍대역점,서울특별시 마포구 양화로 161 2층,37.5568946,126.9233
합정카페거리점,서울특별시 마포구 독막로 13,37.5487791,126.9150434
홈플러스시흥점,서울특별시 금천구 시흥대로 201,37.4519767,126.900714
길동사거리점,서울특별시 강동구 천호대로 1120 1층,37.534426,127.1356131
동교동점,서울특별시 마포구 동교로 207,37.558566,126.9231933
서교동점,서울특별시 마포구 월드컵북로 9-1,37.5557082,126.9203642
합정역점,서울특별시 마포구 독막로 2,37.5484849,126.9136218
당산역점,서울특별시 영등포구 당산로 223 1층,37.5337706,126.9012083
돈암중앙점,서울특별시 성북구 동소문로 118 1층,37.5932927,127.0181507
성신여대입구역점,서울특별시 성북구 아리랑로 9,37.59366,127.0159468
신도림테크노마트점,서울특별시 구로구 새말로 97 신도림테그노마트 B1층,37.5070431,126.8902185
연희점,서울특별시 서대문구 연희로 79,37.5654475,126.9295677
합정메세나폴리스점,서울특별시 마포구 양화로 45 메세나폴리스 지하1층,37.5510614,126.9133225
암사역점,서울특별시 강동구 올림픽로 769 삼정빌딩 1층,37.5499258,127.1271579
올리브영 회기,서울특별시 동대문구 이문로 30 올리브영,37.5900311,127.056239
현대아울렛가산점,서울특별시 금천구 디지털로10길 9,37.4773564,126.8891438
합정교보점,서울특별시 마포구 월드컵로1길 14,37.5495927,126.9121968
가산더블유몰점,서울특별시 금천구 디지털로 188 더블유몰 지하1층,37.4773219,126.8876475
경희대점,서울특별시 동대문구 경희대로 2,37.5917699,127.0525463
디큐브시티점,서울특별시 구로구 경인로 662 디큐브시티 지하2층,37.50904,126.889424
사가정역점,서울특별시 중랑구 면목로 310 극장빌딩 1층,37.5795641,127.0879688
휘경동점,서울특별시 동대문구 망우로 78 휘경빌딩 1층,37.5916167,127.0669046
신도림점,서울특별시 구로구 경인로 661,37.5093957,126.8877258
길동역점,서울특별시 강동구 양재대로 1481 1층,37.5382362,127.1398871
가산디지털단지역점,서울특별시 금천구 벚꽃로 286,37.4803075,126.8841943
망원역점,서울특별시 마포구 월드컵로 74,37.5557302,126.9106996
문래점,서울특별시 영등포구 선유로 63 1층,37.5195897,126.8890304
가산점,서울특별시 금천구 가산디지털1로 171,37.4806318,126.8805702
선유도역점,서울특별시 영등포구 양평로 127,37.537753,126.8934726
종암점,서울특별시 성북구 종암로 123 우영타워 102호,37.6009582,127.0331516
홈플러스강동점,서울특별시 강동구 양재대로 1571 홈플러스 강동점 1층,37.5456582,127.1422439
길음역점,서울특별시 성북구 정릉로 376 BR빌딩 지하 2층,37.6020035,127.0252417
중랑점,서울특별시 중랑구 망우로32길 6,37.5935215,127.0763015
망원동점,서울특별시 마포구 망원로 71 (망원동 423-4번지 1층),37.557527,126.9047654
홈플러스월곡점,서울특별시 성북구 화랑로 76 홈플러스월곡점 B1층,37.6017514,127.0403249
가재울뉴타운점,서울특별시 서대문구 가재울미래로 2 가재울뉴타운 4구역 103동 상가 1층,37.5705054,126.9133646
구일역점,서울특별시 구로구 구일로10길 49 (구로동 다원그린빌) 1층,37.4824954,126.8995898
동덕여대점,서울특별시 성북구 화랑로11길 31,37.6037127,127.0419926
홍제역점,서울특별시 서대문구 통일로 446,37.5887117,126.9445397
명일역점,서울특별시 강동구 양재대로 1637 1층 2호~4호,37.5516741,127.1438047
길음점,서울특별시 성북구 길음로 33 길음뉴타운상가 A동 1층 3호,37.6074709,127.0180208
명지대점,서울특별시 서대문구 거북골로 25-1,37.5798143,126.9245946
정릉점,서울특별시 성북구 보국문로 38 2층,37.6078351,127.0103588
마포구청역점,서울특별시 마포구 월드컵로 196 대명비첸시티 1층,37.5647641,126.9027386
상봉역점,서울특별시 중랑구 망우로 302-1,37.5962478,127.0861096
오목교역점,서울특별시 양천구 오목로 344 청학빌딩,37.523773,126.875221
올리브영 목동,서울특별시 양천구 목동서로 159-1 CBS방송국 내 1층,37.5282135,126.8749471
상봉듀오트리스점,서울특별시 중랑구 상봉로 131 (상봉 듀오트리스),37.5973459,127.0921726
중화역점,서울특별시 중랑구 동일로 802 1층,37.6020457,127.079699
하월곡점,서울특별시 성북구 월계로 52,37.6114424,127.0355496
목동하이페리온점,서울특별시 양천구 오목로 300,37.5241644,126.8703368
종로평창점,서울특별시 종로구 평창11길 8,37.6063111,126.9668946
북가좌동점,서울특별시 서대문구 거북골로 191,37.5778556,126.9093879
홈플러스월드컵점,서울특별시 마포구 월드컵로 240 홈플러스월드컵점 2층,37.5675388,126.8973256
고덕점,서울특별시 강동구 동남로75길 13-15 성은빌딩 1층,37.5536229,127.1554804
양천구청점,서울특별시 양천구 목동동로 73 1층,37.5157593,126.862801
응암오거리점,서울특별시 은평구 응암로 180,37.5880147,126.9170297
개봉역북부점,서울특별시 구로구 경인로40길 41 181-5번지 외 2필지,37.4949883,126.8590223
염창역점,서울특별시 강서구 공항대로 637 1층,37.5472289,126.8757931
목동역점,서울특별시 양천구 목동로 203,37.5266578,126.8637816
신내점,서울특별시 중랑구 신내로72,37.6083906,127.0954925
목동사거리점,서울특별시 강서구 등촌로 15,37.53126,126.8634719
석계역점,서울특별시 노원구 석계로1길 14,37.6155226,127.0638982
신정점,서울특별시 양천구 신월로 349 (신정동),37.5220993,126.8598358
은평구청점,서울특별시 은평구 은평로 194,37.6011049,126.9292847
등촌점,서울특별시 양천구 목동중앙북로7길 20,37.5487118,126.8675673
상암ENM점,서울특별시 마포구 상암산로 66 CJ E&M 센터 1층,37.5784979,126.8916963
신정네거리역점,서울특별시 양천구 중앙로 252,37.5026898,126.8626537
미아역점,서울특별시 강북구 도봉로 188,37.6255977,127.0267831
상암MBC점,서울특별시 마포구 성암로 267 MBC 신사옥상업시설 1층,37.5740931,126.9035854
응암점,서울특별시 은평구 은평로 97 동아빌딩 1층,37.5998352,126.9184744
상일동점,서울특별시 강동구 상일로10길 36 세종텔레콤 지식산업센터1층 110-3호,37.550851,127.17401
응암역점,서울특별시 은평구 증산로 475 (신사동),37.5986006,126.9153248
광운대역점,서울특별시 노원구 석계로 102 1층 2호,37.6232317,127.0609242
상암푸르지오시티점,서울특별시 마포구 월드컵북로54길 25 상암DMC푸르지오시티,37.5814352,126.8893544
홈플러스신내점,서울특별시 중랑구 신내로 201 (신내동),37.6157539,127.0937534
NC불광점,서울특별시 은평구 불광로 20 NC백화점 1층,37.6099033,126.9288338
오류동역점,서울특별시 구로구 경인로20길 4,37.495559,126.8434981
미아점,서울특별시 강북구 도봉로 242,37.6315748,127.0278216
불광역점,서울특별시 은평구 통일로 736,37.611228,126.9295835
증미역점,서울특별시 강서구 양천로 583 우림블루나인 1층,37.556904,126.8642901
노원공릉점,서울특별시 노원구 동일로 1083,37.6265166,127.0721707
천왕역점,서울특별시 구로구 오류로 20 (오류동 173-47 ),37.4864457,126.83918
강일동점,서울특별시 강동구 아리수로 423,37.5603879,127.1498654
공릉역점,서울특별시 노원구 동일로192길 74 (공릉동 441-92),37.6270669,127.0769628
구산역점,서울특별시 은평구 서오릉로 137 (역촌동),37.6107254,126.9175544
홈플러스강서점,서울특별시 강서구 화곡로 398 1층,37.5584359,126.8547981
강서구청점,서울특별시 강서구 화곡로 316 1층 (화곡동),37.55203,126.8502029
올리브영 수유,서울특별시 강북구 도봉로 336 (번동),37.6376534,127.0256798
수유역점,서울특별시 강북구 도봉로 87길 8 1층,37.6383602,127.0251765
연신내범서점,서울특별시 은평구 통일로 842,37.6186243,126.9220434
가양역점,서울특별시 강서구 양천로 476 금부빌딩 지상1층,37.5617266,126.8395692
신정이펜하우스점,서울특별시 양천구 신정이펜2로 14 제1층,37.5139921,126.8320256
연신내로데오점,서울특별시 은평구 연서로 221,37.618383,126.9197893
양천신월점,서울특별시 양천구 지양로 78,37.5226229,126.8335585
연신내점,서울특별시 은평구 통일로 857 1층,37.619547,126.9203649
홈플러스가양점,서울특별시 강서구 양천로 431 홈플러스가양점 1층,37.5642454,126.8499416
화곡역점,서울특별시 강서구 화곡로 149 심당빌딩 1층,37.5411465,126.8380117
공항대로점,서울특별시 강서구 공항대로 329,37.5582043,126.8443392
홈플러스중계점,서울특별시 노원구 동일로204가길 12 홈플러스중계점 1층,37.6398053,127.068653
우장산역점,서울특별시 강서구 강서로 253,37.5483818,126.8360441
NC강서점,서울특별시 강서구 강서로56길 17 4층,37.5599039,126.8405122
발산점,서울특별시 강서구 강서로 360,37.5576613,126.8384045
발산역점,서울특별시 강서구 강서로 385 우성에스비타워,37.5599712,126.8383206
양천향교역점,서울특별시 강서구 양천로 344,37.5642415,126.8426754
중계역점,서울특별시 노원구 동일로 1335 (상계동),37.6479584,127.0622561
덕성여대점,서울특별시 도봉구 삼양로144길 17 1층,37.651677,127.0137493
롯데마트중계점,서울특별시 노원구 노원로 330 롯데마트중계점 2층,37.6466484,127.0709824
창동역점,서울특별시 도봉구 노해로63길 84-16,37.6521578,127.0468125
구파발역점,서울특별시 은평구 진관2로 12,37.6343271,126.9186635
창동점,서울특별시 도봉구 마들로11길 57,37.6534668,127.0501423
노원역사거리점,서울특별시 노원구 노해로 480,37.6541572,127.0614199
은행사거리점,서울특별시 노원구 한글비석로 264 중계그랜드프라자 1층,37.6508596,127.0770963
구파발점,서울특별시 은평구 진관3로 11 힐데스하임 1층 101호 ~ 103호,37.6410554,126.9212098
쌍문점,서울특별시 도봉구 도당로 2,37.6592197,127.0373214
노원점,서울특별시 노원구 상계로 65,37.6563387,127.0622277
마곡나루역점,서울특별시 강서구 마곡서로 152 두산더랜드타워 B동,37.5675656,126.8258731
홈플러스방학점,서울특별시 도봉구 도봉로 678 홈플러스방학점 1층,37.6648017,127.0437103
방학역점,서울특별시 도봉구 도봉로150길 28,37.6658832,127.0447078
상계보람점,서울특별시 노원구 한글비석로 471,37.6640332,127.0653748
신방화역점,서울특별시 강서구 방화대로 294 마곡더블유타워,37.5646012,126.8169076
송정역점,서울특별시 강서구 공항대로 28 1층,37.5611033,126.8102742
방화역점,서울특별시 강서구 금낭화로 292,37.5760176,126.811854
김포공항점,서울특별시 강서구 하늘길 38 롯데몰스카이파크 지하2층,37.5634487,126.8031256
CJ THE MARKET 여의도IFC점,서울특별시 영등포구 국제금융로 10 IFC몰 B3층,37.5249367,126.9252845
군포행사장,서울특별시 중구 소월로2길 12,37.554569,126.9759606
까치산역점,서울특별시 강서구 강서로13길 3,37.532287,126.8460833
미아사거리점,서울특별시 강북구 도봉로 41-1,37.6126281,127.0297169
쌍문역점,서울특별시 도봉구 도봉로 480 1층,37.6483224,127.0348734
외대정문점,서울특별시 동대문구 이문로 107,37.5976171,127.0582192
청담역점,서울특별시 강남구 삼성로 716,37.5198708,127.0500307
티지에스플러스,서울특별시 강동구 성내로 89 303,37.5269702,127.1296599
