school,,address,Latitude,Longitude
서울시립대학교,대학교,서울 동대문구 서울시립대로 163 (전농동 90번지) ,37.583383,127.0593032
서울여자간호대학교,대학교,서울 서대문구 홍제3동 서울여자간호대학,37.597475,126.947416
서울여자대학교,대학교,서울특별시 노원구 화랑로 621 서울여자대학교,37.6281126,127.0904568
서일대학교,대학교,서울 중랑구 서일대학길 22(면목동 49-3) 서일대학교,37.5866169,127.0977437
성공회대학교,대학교,서울 구로구 항동 성공회대학교,37.4872325,126.8253202
성균관대학교,대학교,서울 종로구 명륜동3가 성균관대학교,37.588227,126.993606
성신여자대학교,대학교,서울 성북구 동선동3가 성신여자대학교,37.5915464,127.02127
세종대학교,대학교,서울 광진구 군자동 세종대학교,37.5502596,127.073139
숙명여자대학교,대학교,서울 용산구 청파로47길 100 숙명여자대학교,37.5463644,126.9648311
숭실대학교,대학교,서울 동작구 상도동 511 숭실대학교,37.4968208,126.958529
숭의여자대학교,대학교,서울특별시 중구 소파로2길 10(예장동),37.5567763,126.9875325
연세대학교,대학교,서울 서대문구 신촌동 연세대학교,37.565784,126.938572
이화여자대학교,대학교,서울 서대문구 대현동 11-1 이화여자대학교,37.5617015,126.9458061
인덕대학교,대학교,서울 노원구 초안산로 12,37.6313747,127.0555547
장로회신학대학교,대학교,서울 광진구 광장로 5길 25-1(광장동) 장로회신학대학교,37.5505112,127.1034577
적십자간호대학,대학교,서울 종로구 경교장길8,37.5672578,126.965871
중앙대학교 서울캠퍼스,대학교,서울 동작구 흑석로 84,37.5049996,126.957378
총신대학교,대학교,서울 동작구 사당동 산31-3,37.4800677,126.9755208
추계예술대학교,대학교,서울 서대문구 북아현동 190-1 추계예술대학교,37.5624515,126.9534165
한국방송통신대학교,대학교,서울 종로구 동숭동 한국방송통신대학교,37.5786127,127.0032905
한국성서대학교,대학교,서울 노원구 상계7동 한국성서대학교,37.6487485,127.0643199
한국예술종합학교,대학교,서울 성북구 석관동 ,37.6084827,127.0609186
한국외국어대학교,대학교,서울 동대문구 이문로 107,37.5976171,127.0582192
한국체육대학교,대학교,서울 송파구 오륜동 한국체육대학교,37.5196266,127.1309837
한국폴리텍 I 대학 서울강서캠퍼스,대학교,서울 강서구 화곡동 산60-1,37.5496169,126.842351
한국폴리텍Ⅰ대학 서울정수캠퍼스,대학교,서울 용산구 보광로 73(보광동 238),37.5290615,126.996542
한성대학교,대학교,서울 성북구 삼선동3가 389 한성대학교,37.5822608,127.0094254
한양대학교,대학교,서울특별시 성동구 왕십리로 222 ,37.5544649,127.0465971
한양여자대학교,대학교,서울 성동구 행당동 살곶이길 200,37.5580179,127.046734
한영신학대학교,대학교,서울 구로구 경인로 290-42  한영신학대학교,37.4965411,126.8512616
홍익대학교,대학교,서울특별시 마포구 와우산로 94(상수동),37.5484236,126.9252336
가톨릭대학교,대학교,서울 서초구 반포동 505,37.500612,127.0051811
가톨릭대학교,대학교,서울 종로구 창경궁로 296-12(혜화동) ,37.587496,127.0040214
감리교신학대학교,대학교,서울 서대문구 냉천동 감리교신학대학,37.5676455,126.96161
건국대학교,대학교,서울 광진구 화양동,37.5435547,127.073456
경기대학교,대학교,서울 서대문구 경기대로9길 24 경기대학교,37.5648332,126.9624113
경희대학교,대학교,서울 동대문구 회기동 경희대학교,37.5961951,127.052544
고려대학교,대학교,서울 성북구 안암동 고려대학교,37.590799,127.0277773
광운대학교,대학교,서울특별시 노원구 월계동 447-1,37.6194277,127.05982
국민대학교,대학교,서울 성북구 정릉3동 국민대학교,37.6119544,126.9977033
국제예술대학,대학교,서울 강남구 논현동 79,37.5168791,127.0310327
그리스도대학교,대학교,서울 강서구 화곡6동 그리스도대학교,37.5483449,126.8547974
덕성여자대학교,대학교,서울특별시 도봉구 삼양로 144길 33,37.6511988,127.0161604
동국대학교,대학교,서울 중구 필동3가 동국대학교,37.5582487,127.0001896
동덕여자대학교,대학교,서울 성북구 하월곡2동 동덕여자대학교,37.6063202,127.041808
동양미래대학교,대학교,서울시 구로구 경인로 445 동양미래대학교 (고척동 62-160),37.5004101,126.8677806
디지털서울문화예술대학교,대학교,서울시 서대문구 통일로 37길 60 (홍제동 318-18),37.58535,126.943915
명지대학교 인문캠퍼스,대학교,서울 서대문구 남가좌동 50-3,37.5802178,126.9233966
명지전문대학,대학교,서울 서대문구 가좌로 134 명지전문대학 ,37.5846465,126.9251874
배화여자대학교,대학교,서울 종로구 필운대로 1길 34 배화여자대학교,37.5793895,126.9653816
백석예술대학교,대학교,서울 서초구 방배로9길 23 백석예술대학교,37.480179,126.9963329
사이버한국외국어대학교,대학교,서울 동대문구 이문동 한국외국어대학교,37.597108,127.0588498
삼육대학교,대학교,서울시 노원구 화랑로 815(공릉2동 26-21),37.6426765,127.1052902
삼육보건대학교,대학교,서울 동대문구 휘경2동,37.5911446,127.0677097
상명대학교,대학교,서울 종로구 홍지동 상명대학교,37.602638,126.955252
서강대학교,대학교,서울 마포구 신수동 서강대학교,37.5509442,126.9410023
서경대학교,대학교,서울 성북구 정릉4동 서경대학교,37.6148855,127.0133508
서울과학기술대학교,대학교,서울 노원구 공릉로 232 (공릉동 172),37.6324657,127.0786713
서울과학기술대학교,대학교,서울시 노원구 공릉로 232 서울과학기술대학교,37.6316684,127.0774813
서울교육대학교,대학교,서울 서초구 서초중앙로 96(서초동 1650),37.4899615,127.0164124
서울기독대학교,대학교,서울 은평구 갈현로 4길 26-2호,37.6009165,126.9120286
서울대학교,대학교,서울 관악구 관악로 1 서울대학교,37.459882,126.9519053
서울디지털대학교,대학교,서울 마포구 도화동 560번지,37.5429247,126.9478595
서울사이버대학교,대학교,서울 강북구 솔매로49길 60(미아동 193-15) 서울사이버대학교,37.6299355,127.0271582
경기상업고등학교,고등학교,서울특별시 종로구 자하문로 136,37.58925889,126.9700589
서일국제경영고등학교,고등학교,서울특별시 종로구 지봉로17길 49,37.5793722,127.0130226
대동세무고등학교,고등학교,서울특별시 종로구 계동길 84-10,37.5819196,126.9879303
성동글로벌경영고등학교,고등학교,서울특별시 중구 퇴계로 375,37.5656443,127.0132205
성동공업고등학교,고등학교,서울특별시 중구 다산로 290,37.5693545,127.0171338
한양공업고등학교,고등학교,서울특별시 중구 을지로 299,37.565376,127.0118163
경기여자상업고등학교,고등학교,서울특별시 중구 만리재로37길 30,37.5570331,126.9668351
리라아트고등학교,고등학교,서울특별시 중구 소파로2길 24,37.5571155,126.988191
대경상업고등학교,고등학교,서울특별시 중구 매봉18길 111,37.55669583,127.0175331
용산공업고등학교,고등학교,서울특별시 용산구 서빙고로 24,37.5243031,126.9671858
선린인터넷고등학교,고등학교,서울특별시 용산구 원효로97길 33-4,37.5427814,126.9663628
서울디지텍고등학교,고등학교,서울특별시 용산구 회나무로12길 27,37.538911,126.990534
덕수고등학교,고등학교,서울특별시 성동구 왕십리로 199,37.55526278,127.0411407
성수공업고등학교,고등학교,서울특별시 성동구 뚝섬로 365,37.540543,127.0514262
서울방송고등학교,고등학교,서울특별시 성동구 동호로5길 131,37.54777313,127.0110355
휘경공업고등학교,고등학교,서울특별시 동대문구 겸재로 21,37.5849213,127.0695589
해성국제컨벤션고등학교,고등학교,서울특별시 동대문구 전농로20길 31,37.5812848,127.0569633
정화여자상업고등학교,고등학교,서울특별시 동대문구 홍릉로15길 50,37.5857448,127.0408473
송곡관광고등학교,고등학교,서울특별시 중랑구 양원역로 67,37.6063172,127.1053983
이화여자대학교병설미디어고등학교,고등학교,서울특별시 중랑구 망우로73길 56,37.6037439,127.1049794
서울도시과학기술고등학교,고등학교,서울특별시 성북구 종암로 196,37.6074229,127.03236
동구마케팅고등학교,고등학교,서울특별시 성북구 성북로8길 71,37.5935994,127.0071027
고명경영고등학교,고등학교,서울특별시 성북구 북악산로 870,37.5975051,127.0199462
성암국제무역고등학교,고등학교,서울특별시 강북구 도봉로29길 52,37.6207354,127.024471
서울문화고등학교,고등학교,서울특별시 도봉구 마들로 598,37.6638554,127.0475357
세그루패션디자인고등학교,고등학교,서울특별시 도봉구 시루봉로 53,37.655351,127.0268289
경기기계공업고등학교,고등학교,서울특별시 노원구 공릉로 264,37.6344163,127.0742785
광운전자공업고등학교,고등학교,서울특별시 노원구 광운로1길 24,37.6208454,127.0561467
영신간호비즈니스고등학교,고등학교,서울특별시 노원구 중계로16나길 13,37.6521121,127.0828722
염광여자메디텍고등학교,고등학교,서울특별시 노원구 월계로45가길 9,37.63025824,127.0492435
인덕공업고등학교,고등학교,서울특별시 노원구 초안산로 12,37.6313747,127.0555547
동산정보산업고등학교,고등학교,서울특별시 노원구 공릉로 257,37.6301266,127.0741844
미래산업과학고등학교,고등학교,서울특별시 노원구 덕릉로82길 54,37.6590494,127.0786348
서울아이티고등학교,고등학교,서울특별시 노원구 섬밭로 299,37.6421764,127.0619553
선정관광고등학교,고등학교,서울특별시 은평구 서오릉로20길 19,37.618336,126.9087149
선일이비즈니스고등학교,고등학교,서울특별시 은평구 갈현로29길 27,37.6197497,126.9126173
예일디자인고등학교,고등학교,서울특별시 은평구 연서로 117,37.6101791,126.9151623
동명여자정보산업고등학교,고등학교,서울특별시 은평구 통일로 793,37.6146895,126.9240099
신진과학기술고등학교,고등학교,서울특별시 은평구 은평로6길 16,37.5983306,126.9184276
은평메디텍고등학교,고등학교,서울특별시 은평구 진관2로 57-57,37.6351761,126.929375
세명컴퓨터고등학교,고등학교,서울특별시 은평구 통일로92가길 33,37.6275592,126.9231578
홍익디자인고등학교,고등학교,서울특별시 마포구 성미산로 111,37.56350983,126.9191674
한세사이버보안고등학교,고등학교,서울특별시 마포구 마포대로11길 44-80,37.5517898,126.9520321
서울디자인고등학교,고등학교,서울특별시 마포구 백범로 139,37.5463299,126.9473737
서울금융고등학교,고등학교,서울특별시 양천구 가로공원로61길 19,37.5378303,126.8255403
서울영상고등학교,고등학교,서울특별시 양천구 목동로11길 46,37.5231812,126.8600333
강서공업고등학교,고등학교,서울특별시 강서구 방화대로47길 9,37.5754999,126.8160214
화곡보건경영고등학교,고등학교,서울특별시 강서구 강서로45길 70,37.5488204,126.8328267
신정여자상업고등학교,고등학교,서울특별시 강서구 등촌로13아길 20,37.5380245,126.8568925
서울항공비즈니스고등학교,고등학교,서울특별시 강서구 방화대로34길 13,37.5697071,126.8170866
영등포공업고등학교,고등학교,서울특별시 강서구 허준로5길 15,37.5692245,126.8504967
예림디자인고등학교,고등학교,서울특별시 구로구 오리로21길 2,37.4996945,126.8282053
덕일전자공업고등학교,고등학교,서울특별시 구로구 서해안로21길 5-12,37.490578,126.8371091
유한공업고등학교,고등학교,서울특별시 구로구 경인로 8,37.4878646,126.8240073
서서울생활과학고등학교,고등학교,서울특별시 구로구 오리로 1355-10,37.5032117,126.8281605
동일여자상업고등학교,고등학교,서울특별시 금천구 탑골로10길 45,37.45167193,126.9168874
한강미디어고등학교,고등학교,서울특별시 영등포구 선유로55길 22,37.5391173,126.8972396
서울공업고등학교,고등학교,서울특별시 동작구 대방동1길 46,37.50190153,126.9223834
서울여자상업고등학교,고등학교,서울특별시 관악구 관악로 85,37.4731302,126.9513293
광신정보산업고등학교,고등학교,서울특별시 관악구 광신길 141,37.4651377,126.9256312
서울관광고등학교,고등학교,서울특별시 관악구 은천로15길 25,37.4881856,126.9433831
영락유헬스고등학교,고등학교,서울특별시 관악구 청룡16길 25,37.4763905,126.9446913
서울전자고등학교,고등학교,서울특별시 서초구 과천대로 852-23,37.4693105,126.988415
서울로봇고등학교,고등학교,서울특별시 강남구 광평로20길 63,37.4807426,127.0843315
단국공업고등학교,고등학교,서울특별시 강남구 도곡로64길 21,37.4953357,127.0564936
대진디자인고등학교,고등학교,서울특별시 강남구 광평로39길 93,37.4904401,127.0960046
송파공업고등학교,고등학교,서울특별시 송파구 양산로 21,37.4917279,127.1424358
일신여자상업고등학교,고등학교,서울특별시 송파구 송파대로38길 8,37.5017159,127.1135991
성덕고등학교,고등학교,서울특별시 강동구 구천면로 396,37.5495007,127.1425564
서울컨벤션고등학교,고등학교,서울특별시 강동구 동남로 964,37.5592845,127.1576771
상일미디어고등학교,고등학교,서울특별시 강동구 천호대로219길 61,37.54795369,127.1702183
서울과학고등학교,고등학교,서울특별시 종로구 혜화로 63,37.5916754,126.9982134
서울국제고등학교,고등학교,서울특별시 종로구 성균관로13길 40,37.59134,126.9959635
서울예술고등학교,고등학교,서울특별시 종로구 평창문화로 70,37.605391,126.9691915
이화여자외국어고등학교,고등학교,서울특별시 중구 통일로4길 30,37.56557705,126.9696428
대원외국어고등학교,고등학교,서울특별시 광진구 용마산로22길 26,37.563079,127.0889497
선화예술고등학교,고등학교,서울특별시 광진구 천호대로 664,37.55098151,127.087093
대일외국어고등학교,고등학교,서울특별시 성북구 서경로 116,37.61330387,127.0141757
서울외국어고등학교,고등학교,서울특별시 도봉구 덕릉로66길 22,37.6455929,127.0519514
한성과학고등학교,고등학교,서울특별시 서대문구 통일로 279-79,37.5759859,126.9527945
명덕외국어고등학교,고등학교,서울특별시 강서구 강서로47길 34-10,37.5536011,126.8347305
덕원예술고등학교,고등학교,서울특별시 강서구 강서로45길 91-44,37.5485816,126.8290111
세종과학고등학교,고등학교,서울특별시 구로구 오리로21길 79,37.4968072,126.8276182
서울공연예술고등학교,고등학교,서울특별시 구로구 오리로22나길 16-26,37.5000848,126.8322027
국립전통예술고등학교,고등학교,서울특별시 금천구 시흥대로38길 62,37.4462133,126.9064871
미림여자정보과학고등학교,고등학교,서울특별시 관악구 호암로 546,37.4665516,126.932908
국립국악고등학교,고등학교,서울특별시 강남구 개포로22길 65,37.475978,127.0516132
수도전기공업고등학교,고등학교,서울특별시 강남구 개포로 410,37.48493808,127.0644798
서울체육고등학교,고등학교,서울특별시 송파구 강동대로 232,37.5216734,127.130579
한영외국어고등학교,고등학교,서울특별시 강동구 동남로 832,37.5489092,127.1581466
경복고등학교,고등학교,서울특별시 종로구 자하문로28가길 9,37.5867302,126.9717701
대신고등학교,고등학교,서울특별시 종로구 사직로 9,37.5734256,126.9618971
경신고등학교,고등학교,서울특별시 종로구 혜화로 74,37.5914502,127.0006702
배화여자고등학교,고등학교,서울특별시 종로구 필운대로1길 34,37.57849658,126.9668658
덕성여자고등학교,고등학교,서울특별시 종로구 율곡로3길 50,37.5773697,126.9827378
상명대학교사범대학부속여자고등학교,고등학교,서울특별시 종로구 홍지문2길 20,37.6041771,126.9556929
장충고등학교,고등학교,서울특별시 중구 동호로15길 93,37.5531457,127.0065905
용산고등학교,고등학교,서울특별시 용산구 두텁바위로 60,37.5453891,126.979489
오산고등학교,고등학교,서울특별시 용산구 보광로7길 17,37.52378179,127.0008688
배문고등학교,고등학교,서울특별시 용산구 효창원로 258,37.5499978,126.9639049
보성여자고등학교,고등학교,서울특별시 용산구 신흥로3가길 66,37.5426751,126.984496
신광여자고등학교,고등학교,서울특별시 용산구 청파로 263,37.5431703,126.9699957
성심여자고등학교,고등학교,서울특별시 용산구 원효로19길 49,37.5341025,126.9542291
무학여자고등학교,고등학교,서울특별시 성동구 고산자로 197,37.55676803,127.0335995
성수고등학교,고등학교,서울특별시 성동구 서울숲길 18,37.547981,127.0387013
광남고등학교,고등학교,서울특별시 광진구 아차산로70길 17-16,37.5413411,127.101751
자양고등학교,고등학교,서울특별시 광진구 뚝섬로37길 28,37.535433,127.0728365
대원고등학교,고등학교,서울특별시 광진구 용마산로22길 26,37.563079,127.0889497
동국대학교사범대학부속여자고등학교,고등학교,서울특별시 광진구 광나루로36길 47,37.5425112,127.0867784
대원여자고등학교,고등학교,서울특별시 광진구 용마산로22길 26,37.563079,127.0889497
건국대학교사범대학부속고등학교,고등학교,서울특별시 광진구 능동로 120,37.53918331,127.0747099
휘봉고등학교,고등학교,서울특별시 동대문구 한천로 290,37.5864773,127.0688515
동국대학교사범대학부속고등학교,고등학교,서울특별시 동대문구 장안벚꽃로 201,37.57804844,127.0751336
해성여자고등학교,고등학교,서울특별시 동대문구 전농로20길 31,37.5812323,127.0569633
경희여자고등학교,고등학교,서울특별시 동대문구 경희대로 26,37.5939495,127.0548902
휘경여자고등학교,고등학교,서울특별시 동대문구 한천로 247,37.5831849,127.0673783
태릉고등학교,고등학교,서울특별시 중랑구 신내로23길 36,37.6188414,127.0849496
신현고등학교,고등학교,서울특별시 중랑구 봉화산로 174,37.6052281,127.0929502
중화고등학교,고등학교,서울특별시 중랑구 봉화산로27길 62,37.6046784,127.0832703
송곡고등학교,고등학교,서울특별시 중랑구 양원역로 50,37.6053695,127.1068868
송곡여자고등학교,고등학교,서울특별시 중랑구 양원역로 67,37.6063172,127.1053091
혜원여자고등학교,고등학교,서울특별시 중랑구 봉우재로58길 39,37.592991,127.0967019
서울대학교사범대학부설고등학교,고등학교,서울특별시 성북구 월곡로 6,37.59472375,127.0381187
석관고등학교,고등학교,서울특별시 성북구 한천로70길 30,37.610067,127.0664232
홍익대학교사범대학부속고등학교,고등학교,서울특별시 성북구 성북로14가길 23,37.5940995,127.0032562
고려대학교사범대학부속고등학교,고등학교,서울특별시 성북구 정릉로 161,37.6098005,127.001572
한성여자고등학교,고등학교,서울특별시 성북구 삼선교로16길 117,37.58306327,127.0117841
성신여자고등학교,고등학교,서울특별시 성북구 동소문로26가길 80,37.5942881,127.0224064
혜화여자고등학교,고등학교,서울특별시 강북구 인수봉로 127,37.6310519,127.0127157
삼각산고등학교,고등학교,서울특별시 강북구 삼양로19길 40,37.6160393,127.0200563
창문여자고등학교,고등학교,서울특별시 강북구 월계로 61,37.6131144,127.0362812
영훈고등학교,고등학교,서울특별시 강북구 도봉로13가길 19,37.613765,127.0278332
누원고등학교,고등학교,서울특별시 도봉구 마들로 849,37.6855142,127.0498868
효문고등학교,고등학교,서울특별시 도봉구 우이천로 432,37.6520737,127.0183236
자운고등학교,고등학교,서울특별시 도봉구 노해로69길 150,37.6592612,127.0504663
창동고등학교,고등학교,서울특별시 도봉구 노해로62길 7,37.6509764,127.0383612
정의여자고등학교,고등학교,서울특별시 도봉구 노해로49길 69,37.6529105,127.0318063
상계고등학교,고등학교,서울특별시 노원구 노해로 432,37.6525328,127.0556823
불암고등학교,고등학교,서울특별시 노원구 중계로 155,37.648924,127.0801792
노원고등학교,고등학교,서울특별시 노원구 노원로 586,37.6624531,127.0531016
월계고등학교,고등학교,서울특별시 노원구 초안산로5길 66,37.6317394,127.0486715
청원고등학교,고등학교,서울특별시 노원구 한글비석로 506,37.6660284,127.0620129
서라벌고등학교,고등학교,서울특별시 노원구 한글비석로5길 18,37.6449003,127.0758322
대진고등학교,고등학교,서울특별시 노원구 공릉로62가길 47,37.6376049,127.07504
재현고등학교,고등학교,서울특별시 노원구 덕릉로82길 64,37.6615474,127.0814504
청원여자고등학교,고등학교,서울특별시 노원구 한글비석로 506,37.6660284,127.0620129
영신여자고등학교,고등학교,서울특별시 노원구 중계로16나길 13,37.6521121,127.0828722
혜성여자고등학교,고등학교,서울특별시 노원구 노원로16길 2,37.640511,127.0736034
용화여자고등학교,고등학교,서울특별시 노원구 동일로 1461,37.6588542,127.0583806
대진여자고등학교,고등학교,서울특별시 노원구 공릉로 438,37.6464458,127.0672803
한국삼육고등학교,고등학교,서울특별시 노원구 화랑로 815,37.6431424,127.1062512
염광고등학교,고등학교,서울특별시 노원구 월계로45가길 9,37.63025824,127.0492435
상명고등학교,고등학교,서울특별시 노원구 덕릉로 553,37.6494211,127.0682567
신도고등학교,고등학교,서울특별시 은평구 통일로 961,37.6291368,126.9184892
진관고등학교,고등학교,서울특별시 은평구 진관4로 26,37.6433754,126.9244109
은평고등학교,고등학교,서울특별시 은평구 갈현로15길 51,37.6092227,126.9058482
충암고등학교,고등학교,서울특별시 은평구 가좌로5길 5,37.5850457,126.9217386
숭실고등학교,고등학교,서울특별시 은평구 은평터널로7길 6,37.593125,126.9032327
동명여자고등학교,고등학교,서울특별시 은평구 통일로 793,37.6146895,126.9240099
선일여자고등학교,고등학교,서울특별시 은평구 갈현로29길 27,37.6197497,126.9126173
예일여자고등학교,고등학교,서울특별시 은평구 연서로 117,37.6101791,126.9151623
선정고등학교,고등학교,서울특별시 은평구 서오릉로20길 19,37.618336,126.9087107
인창고등학교,고등학교,서울특별시 서대문구 경기대로 65,37.5651781,126.9639075
한성고등학교,고등학교,서울특별시 서대문구 북아현로1길 24,37.55909581,126.9544615
중앙여자고등학교,고등학교,서울특별시 서대문구 북아현로11가길 7,37.5628641,126.9531684
명지고등학교,고등학교,서울특별시 서대문구 명지2길 56,37.5848709,126.9270773
광성고등학교,고등학교,서울특별시 마포구 신수로8길 20,37.5486226,126.9363687
경성고등학교,고등학교,서울특별시 마포구 성미산로 111,37.56350983,126.9191674
홍익대학교사범대학부속여자고등학교,고등학교,서울특별시 마포구 성미산로 51,37.5601072,126.9134939
금옥여자고등학교,고등학교,서울특별시 양천구 신정로 213,37.5106219,126.8442611
신목고등학교,고등학교,서울특별시 양천구 안양천로 739,37.5128286,126.8734611
신서고등학교,고등학교,서울특별시 양천구 은행정로 42,37.5237867,126.860093
강서고등학교,고등학교,서울특별시 양천구 목동중앙남로 27,37.5364895,126.8663661
광영고등학교,고등학교,서울특별시 양천구 남부순환로30길 17,37.53779,126.8241065
양천고등학교,고등학교,서울특별시 양천구 신정로14길 13,37.5088072,126.8459167
진명여자고등학교,고등학교,서울특별시 양천구 목동로 170,37.523798,126.8661298
목동고등학교,고등학교,서울특별시 양천구 목동동로2길 68,37.5090728,126.8607466
광영여자고등학교,고등학교,서울특별시 양천구 남부순환로30길 17,37.53779,126.8241074
백암고등학교,고등학교,서울특별시 양천구 신정로13길 16,37.5117371,126.8440539
공항고등학교,고등학교,서울특별시 강서구 개화동로 495,37.56929277,126.8063246
수명고등학교,고등학교,서울특별시 강서구 수명로2길 15,37.5497013,126.8242688
세현고등학교,고등학교,서울특별시 강서구 허준로 227,37.5604161,126.8637798
대일고등학교,고등학교,서울특별시 강서구 등촌로 105,37.5394531,126.8632842
마포고등학교,고등학교,서울특별시 강서구 화곡로 403,37.55998993,126.8531328
화곡고등학교,고등학교,서울특별시 강서구 강서로45길 69,37.5480355,126.831698
명덕고등학교,고등학교,서울특별시 강서구 강서로47길 34-10,37.5536011,126.8347305
동양고등학교,고등학교,서울특별시 강서구 허준로 50,37.5687587,126.8470842
영일고등학교,고등학교,서울특별시 강서구 등촌로51가길 26,37.5473671,126.8618151
경복여자고등학교,고등학교,서울특별시 강서구 화곡로63길 40,37.55782075,126.8505974
덕원여자고등학교,고등학교,서울특별시 강서구 강서로45길 91-44,37.5485816,126.8290111
명덕여자고등학교,고등학교,서울특별시 강서구 강서로47길 34-10,37.5536011,126.8347305
한서고등학교,고등학교,서울특별시 강서구 양천로11길 47,37.5746018,126.8081599
한광고등학교,고등학교,서울특별시 강서구 등촌로13길 110,37.5388666,126.8578799
경인고등학교,고등학교,서울특별시 구로구 경인로46길 31,37.4964171,126.8657015
구로고등학교,고등학교,서울특별시 구로구 가마산로27길 45,37.4984981,126.8896924
구일고등학교,고등학교,서울특별시 구로구 구일로 90-51,37.4941106,126.873852
신도림고등학교,고등학교,서울특별시 구로구 경인로67길 159,37.5136678,126.8820338
오류고등학교,고등학교,서울특별시 구로구 오리로21길 2,37.4996945,126.8282053
독산고등학교,고등학교,서울특별시 금천구 문성로 64,37.4760267,126.9108536
문일고등학교,고등학교,서울특별시 금천구 시흥대로47길 45,37.4493523,126.8984231
동일여자고등학교,고등학교,서울특별시 금천구 탑골로10길 45,37.45167193,126.9168874
여의도고등학교,고등학교,서울특별시 영등포구 국제금융로7길 37,37.5252751,126.9336842
영등포여자고등학교,고등학교,서울특별시 영등포구 영등포로62길 13,37.5153771,126.9152716
여의도여자고등학교,고등학교,서울특별시 영등포구 국제금융로7가길 13,37.5229622,126.9349823
관악고등학교,고등학교,서울특별시 영등포구 영등포로6길 26,37.5214463,126.8829505
영신고등학교,고등학교,서울특별시 영등포구 대방천로14길 18,37.4977349,126.9098123
선유고등학교,고등학교,서울특별시 영등포구 선유로 227,37.5339205,126.8948722
영등포고등학교,고등학교,서울특별시 동작구 등용로8길 5,37.50905578,126.9347349
수도여자고등학교,고등학교,서울특별시 동작구 여의대방로10길 73,37.4931834,126.9155129
동작고등학교,고등학교,서울특별시 동작구 솔밭로 51,37.48260068,126.965086
성남고등학교,고등학교,서울특별시 동작구 대방동길 74,37.50528121,126.9266132
숭의여자고등학교,고등학교,서울특별시 동작구 여의대방로36길 79,37.5073276,126.9292344
구암고등학교,고등학교,서울특별시 관악구 성현로 57,37.4924558,126.9502242
신림고등학교,고등학교,서울특별시 관악구 문성로 119,37.4786338,126.9173643
인헌고등학교,고등학교,서울특별시 관악구 인헌9길 74,37.4715662,126.9702013
삼성고등학교,고등학교,서울특별시 관악구 신림로 41,37.4691633,126.9436438
남강고등학교,고등학교,서울특별시 관악구 난곡로34길 80,37.4719974,126.9247473
성보고등학교,고등학교,서울특별시 관악구 남부순환로156길 39,37.4801177,126.9207947
서울문영여자고등학교,고등학교,서울특별시 관악구 관악로 85,37.4731302,126.9513293
서울미술고등학교,고등학교,서울특별시 관악구 남부순환로247길 26,37.47676,126.9671283
광신고등학교,고등학교,서울특별시 관악구 광신길 141,37.4651377,126.9256312
영락고등학교,고등학교,서울특별시 관악구 청룡16길 25,37.4763092,126.9446913
서울고등학교,고등학교,서울특별시 서초구 효령로 197,37.4842697,127.005399
반포고등학교,고등학교,서울특별시 서초구 고무래로 71,37.5022177,127.016153
양재고등학교,고등학교,서울특별시 서초구 남부순환로346길 9,37.4827746,127.0324921
서초고등학교,고등학교,서울특별시 서초구 반포대로27길 29,37.4893168,127.0057059
언남고등학교,고등학교,서울특별시 서초구 동산로13길 35,37.4725868,127.042718
상문고등학교,고등학교,서울특별시 서초구 명달로 45,37.4794948,127.0045069
서문여자고등학교,고등학교,서울특별시 서초구 동광로12길 84,37.4885743,126.985083
동덕여자고등학교,고등학교,서울특별시 서초구 효령로2길 123-5,37.4759144,126.9927567
경기고등학교,고등학교,서울특별시 강남구 영동대로 643,37.5161265,127.05525
경기여자고등학교,고등학교,서울특별시 강남구 삼성로 29,37.486824,127.0660933
개포고등학교,고등학교,서울특별시 강남구 개포로 402,37.4846776,127.0596014
압구정고등학교,고등학교,서울특별시 강남구 압구정로39길 20,37.5311729,127.0328538
청담고등학교,고등학교,서울특별시 강남구 압구정로 419,37.5278836,127.0435289
영동고등학교,고등학교,서울특별시 강남구 선릉로 742,37.5205869,127.0426288
중산고등학교,고등학교,서울특별시 강남구 일원로14길 22,37.485653,127.0808471
단국대학교사범대학부속고등학교,고등학교,서울특별시 강남구 도곡로64길 21,37.4953357,127.0564936
숙명여자고등학교,고등학교,서울특별시 강남구 남부순환로 2807,37.4907295,127.0533366
은광여자고등학교,고등학교,서울특별시 강남구 남부순환로359길 36,37.4879414,127.0359252
진선여자고등학교,고등학교,서울특별시 강남구 선릉로85길 27,37.501754,127.0476387
서울세종고등학교,고등학교,서울특별시 강남구 광평로51길 36,37.4903266,127.1026224
중앙대학교사범대학부속고등학교,고등학교,서울특별시 강남구 선릉로 207,37.4919416,127.0521317
잠일고등학교,고등학교,서울특별시 송파구 백제고분로 21,37.5140261,127.0814053
잠실고등학교,고등학교,서울특별시 송파구 올림픽로33길 71,37.52293007,127.1065132
창덕여자고등학교,고등학교,서울특별시 송파구 양재대로 1240,37.5163989,127.1399737
방산고등학교,고등학교,서울특별시 송파구 오금로27길 18,37.508227,127.1204817
문정고등학교,고등학교,서울특별시 송파구 송이로34길 62,37.4847089,127.1267288
가락고등학교,고등학교,서울특별시 송파구 송이로 42,37.5011923,127.1165911
오금고등학교,고등학교,서울특별시 송파구 중대로 247,37.504487,127.1292797
잠신고등학교,고등학교,서울특별시 송파구 잠실로 24,37.5150759,127.0889878
문현고등학교,고등학교,서울특별시 송파구 충민로 115,37.4812764,127.1287497
보성고등학교,고등학교,서울특별시 송파구 양재대로 1278,37.5195624,127.1351642
배명고등학교,고등학교,서울특별시 송파구 삼학사로 11,37.4984761,127.0955809
잠실여자고등학교,고등학교,서울특별시 송파구 송파대로38길 8,37.5017159,127.1135991
정신여자고등학교,고등학교,서울특별시 송파구 올림픽로4길 16,37.5091964,127.0727415
영파여자고등학교,고등학교,서울특별시 송파구 올림픽로 565,37.5326565,127.1202571
영동일고등학교,고등학교,서울특별시 송파구 석촌호수로 93,37.5099074,127.0897718
명일여자고등학교,고등학교,서울특별시 강동구 명일로 350,37.5498157,127.1500544
둔촌고등학교,고등학교,서울특별시 강동구 명일로 140,37.530868,127.1439317
강일고등학교,고등학교,서울특별시 강동구 아리수로98길 40,37.5639542,127.1777631
선사고등학교,고등학교,서울특별시 강동구 고덕로25길 17,37.5564791,127.1359719
동북고등학교,고등학교,서울특별시 강동구 강동대로 305,37.5200101,127.1406733
상일여자고등학교,고등학교,서울특별시 강동구 천호대로219길 61,37.54795369,127.1702183
광문고등학교,고등학교,서울특별시 강동구 동남로 968,37.5602563,127.1585555
강동고등학교,고등학교,서울특별시 강동구 구천면로 572,37.54991683,127.1606671
한영고등학교,고등학교,서울특별시 강동구 동남로 832,37.5489092,127.1581885
동성고등학교,고등학교,서울특별시 종로구 대학로 156,37.5850756,127.0024292
중앙고등학교,고등학교,서울특별시 종로구 창덕궁길 164,37.584897,126.9870352
성동고등학교,고등학교,서울특별시 중구 퇴계로90길 17,37.5641164,127.0232038
이화여자고등학교,고등학교,서울특별시 중구 정동길,37.56557705,126.9696428
중경고등학교,고등학교,서울특별시 용산구 이촌로84길 34,37.5176026,126.9757149
경일고등학교,고등학교,서울특별시 성동구 성수일로 27,37.5435875,127.0480483
한양대학교사범대학부속고등학교,고등학교,서울특별시 성동구 마조로 42,37.56191893,127.042326
광양고등학교,고등학교,서울특별시 광진구 자양로3가길 31,37.5293846,127.0855989
청량고등학교,고등학교,서울특별시 동대문구 왕산로 303,37.5887771,127.0510593
경희고등학교,고등학교,서울특별시 동대문구 경희대로 26,37.5939495,127.0548902
대광고등학교,고등학교,서울특별시 동대문구 안암로 6,37.577861,127.0247227
면목고등학교,고등학교,서울특별시 중랑구 용마산로72길 36-14,37.5842779,127.0971627
원묵고등학교,고등학교,서울특별시 중랑구 숙선옹주로 82,37.6151791,127.0855959
경동고등학교,고등학교,서울특별시 성북구 보문로29길 49,37.586143,127.0149687
용문고등학교,고등학교,서울특별시 성북구 인촌로17가길 46,37.5881284,127.0250507
미양고등학교,고등학교,서울특별시 강북구 인수봉로 39,37.6232973,127.0122428
신일고등학교,고등학교,서울특별시 강북구 솔매로49길 20,37.6282824,127.0282661
도봉고등학교,고등학교,서울특별시 도봉구 도봉산길 27,37.6867707,127.0428051
선덕고등학교,고등학교,서울특별시 도봉구 시루봉로 53,37.655351,127.0268289
수락고등학교,고등학교,서울특별시 노원구 동일로245길 143,37.6827335,127.0535593
대성고등학교,고등학교,서울특별시 은평구 갈현로29길 51-24,37.6222852,126.9095921
하나고등학교,고등학교,서울특별시 은평구 연서로 535,37.6409443,126.9367183
이화여자대학교사범대학부속이화금란고등학교,고등학교,서울특별시 서대문구 성산로 560,37.56636584,126.947661
서울여자고등학교,고등학교,서울특별시 마포구 백범로25길 34,37.5478121,126.9485819
상암고등학교,고등학교,서울특별시 마포구 월드컵북로 445,37.5813832,126.8836186
숭문고등학교,고등학교,서울특별시 마포구 숭문길 99,37.5508728,126.9457596
양정고등학교,고등학교,서울특별시 양천구 안양천로 1039,37.5347501,126.8871706
한가람고등학교,고등학교,서울특별시 양천구 목동서로 15,37.5376281,126.8841248
등촌고등학교,고등학교,서울특별시 강서구 공항대로39길 115,37.5625935,126.8450161
구현고등학교,고등학교,서울특별시 구로구 경인로53가길 17,37.5022028,126.8744458
고척고등학교,고등학교,서울특별시 구로구 중앙로15길 162,37.5085758,126.8506504
우신고등학교,고등학교,서울특별시 구로구 부일로 917,37.4951383,126.8268765
금천고등학교,고등학교,서울특별시 금천구 시흥대로38길 26,37.444959,126.9055327
대영고등학교,고등학교,서울특별시 영등포구 도림로86길 16,37.50366271,126.9058641
장훈고등학교,고등학교,서울특별시 영등포구 영등포로64길 26,37.5133645,126.9151152
경문고등학교,고등학교,서울특별시 동작구 동작대로 171,37.4933383,126.9822717
당곡고등학교,고등학교,서울특별시 관악구 봉천로21길 108,37.4916205,126.9346016
미림여자고등학교,고등학교,서울특별시 관악구 호암로 546,37.4665516,126.932908
세화고등학교,고등학교,서울특별시 서초구 신반포로 56-7,37.5018343,126.9922636
세화여자고등학교,고등학교,서울특별시 서초구 신반포로 56-7,37.5018559,126.9922636
휘문고등학교,고등학교,서울특별시 강남구 역삼로 541,37.5049279,127.0620662
중동고등학교,고등학교,서울특별시 강남구 일원로 7,37.4935585,127.0804483
현대고등학교,고등학교,서울특별시 강남구 압구정로 127,37.5250492,127.0226425
보인고등학교,고등학교,서울특별시 송파구 오금로49길 18,37.4972181,127.1388757
배재고등학교,고등학교,서울특별시 강동구 고덕로 227,37.5558123,127.1504916
경복비즈니스고등학교,고등학교,서울특별시 강서구 화곡로 379,37.5580254,126.8526703
가재울고등학교,고등학교,서울특별시 서대문구 수색로 100-35,37.5743151,126.9095302
금호고등학교,고등학교,서울특별시 성동구 금호로 118,37.5536206,127.0234354
도선고등학교,고등학교,서울특별시 성동구 마장로 156,37.566656,127.0271249
환일고등학교,고등학교,서울특별시 중구 환일길 47,37.553868,126.9621659
계성고등학교,고등학교,서울특별시 성북구 길음로 63,37.6075189,127.0204337
대일관광고등학교,고등학교,서울특별시 양천구 신정이펜1로 11,37.51141277,126.8349048
풍문고등학교,고등학교,서울특별시 강남구 자곡로 152,37.4712504,127.1006925
숭인중학교,중학교,서울특별시 동대문구 천호대로47길 34,37.5737834,127.0438537
장평중학교,중학교,서울특별시 동대문구 답십리로72길 158,37.5665027,127.0705294
전일중학교,중학교,서울특별시 동대문구 사가정로13길 67,37.5819789,127.0583551
전농중학교,중학교,서울특별시 동대문구 사가정로13길 71,37.5803315,127.0601296
동대문중학교,중학교,서울특별시 동대문구 사가정로 59,37.5742981,127.0519039
성일중학교,중학교,서울특별시 동대문구 왕산로23길 55,37.5812877,127.0340095
청량중학교,중학교,서울특별시 동대문구 왕산로 301,37.5878065,127.0511245
전동중학교,중학교,서울특별시 동대문구 장안벚꽃로 291,37.5856607,127.0711298
휘경중학교,중학교,서울특별시 동대문구 망우로18나길 20,37.5871413,127.0620517
경희중학교,중학교,서울특별시 동대문구 경희대로 26,37.5939495,127.0548902
동국대학교사범대학부속중학교,중학교,서울특별시 동대문구 장안벚꽃로 201,37.57804844,127.0751705
정화여자중학교,중학교,서울특별시 동대문구 홍릉로15길 50,37.5857064,127.0408473
휘경여자중학교,중학교,서울특별시 동대문구 한천로 247,37.5831849,127.0673783
경희여자중학교,중학교,서울특별시 동대문구 경희대로 26,37.5939495,127.0548902
대광중학교,중학교,서울특별시 동대문구 안암로 6,37.577861,127.0247227
동원중학교,중학교,서울특별시 중랑구 양원역로 32,37.6037348,127.1088882
봉화중학교,중학교,서울특별시 중랑구 망우로70길 89,37.5960866,127.1042177
중화중학교,중학교,서울특별시 중랑구 용마산로 364,37.5846058,127.0952009
면목중학교,중학교,서울특별시 중랑구 용마산로70길 37,37.5830377,127.0960613
용마중학교,중학교,서울특별시 중랑구 면목로28길 18,37.5743518,127.0860548
원묵중학교,중학교,서울특별시 중랑구 신내로23길 57,37.6177721,127.0840347
태릉중학교,중학교,서울특별시 중랑구 공릉로2길 60-25,37.6123214,127.0830802
상봉중학교,중학교,서울특별시 중랑구 상봉중앙로8나길 28,37.6014604,127.0900877
신현중학교,중학교,서울특별시 중랑구 봉화산로 162,37.6046114,127.0916088
중랑중학교,중학교,서울특별시 중랑구 동일로140길 33,37.6051919,127.0813987
장안중학교,중학교,서울특별시 중랑구 동일로 780,37.6005832,127.0809446
송곡여자중학교,중학교,서울특별시 중랑구 양원역로 67,37.6063172,127.1053091
영란여자중학교,중학교,서울특별시 중랑구 망우로73길 56,37.6037439,127.1049617
혜원여자중학교,중학교,서울특별시 중랑구 봉우재로58길 39,37.592991,127.0967967
구산중학교,중학교,서울특별시 은평구 갈현로15길 20-23,37.6096859,126.9088711
증산중학교,중학교,서울특별시 은평구 증산로5길 27-30,37.5833357,126.9039526
신도중학교,중학교,서울특별시 은평구 진관1로 77-30,37.6327604,126.9308427
진관중학교,중학교,서울특별시 은평구 진관4로 36,37.6439091,126.9256292
은평중학교,중학교,서울특별시 은평구 갈현로17나길 12-1,37.6107316,126.9084436
불광중학교,중학교,서울특별시 은평구 불광로 180,37.6230951,126.932123
연신중학교,중학교,서울특별시 은평구 연서로33길 16-32,37.6234911,126.9247507
연천중학교,중학교,서울특별시 은평구 연서로41길 30,37.6274422,126.9258482
상신중학교,중학교,서울특별시 은평구 증산로15길 61,37.5898474,126.906663
덕산중학교,중학교,서울특별시 은평구 가좌로 400,37.6021261,126.9044799
연서중학교,중학교,서울특별시 은평구 증산서길 125-6,37.5869994,126.9097051
대성중학교,중학교,서울특별시 은평구 갈현로29길 51-24,37.6222852,126.9095921
숭실중학교,중학교,서울특별시 은평구 은평터널로7길 6,37.593125,126.9032327
선일여자중학교,중학교,서울특별시 은평구 갈현로29길 27,37.6197088,126.9126173
예일여자중학교,중학교,서울특별시 은평구 연서로 117,37.6101791,126.9151623
선정중학교,중학교,서울특별시 은평구 서오릉로20길 19,37.618336,126.9087107
영락중학교,중학교,서울특별시 은평구 백련산로 134-6,37.59695868,126.9251334
충암중학교,중학교,서울특별시 은평구 가좌로5길 5,37.5850457,126.9217386
연희중학교,중학교,서울특별시 서대문구 증가로 170,37.5794106,126.9187767
신연중학교,중학교,서울특별시 서대문구 모래내로 408,37.5824549,126.9394981
연북중학교,중학교,서울특별시 서대문구 연희로36길 32,37.5772168,126.9385603
서연중학교,중학교,서울특별시 서대문구 연희로11마길 9-6,37.5681089,126.9276344
홍은중학교,중학교,서울특별시 서대문구 연희로41길 94,37.5926855,126.9351327
인왕중학교,중학교,서울특별시 서대문구 세검정로4길,37.5926488,126.9517708
인창중학교,중학교,서울특별시 서대문구 경기대로 65,37.5651781,126.9639075
한성중학교,중학교,서울특별시 서대문구 북아현로1길 24,37.55909581,126.9544568
동명여자중학교,중학교,서울특별시 서대문구 독립문로 49,37.5685235,126.9623079
중앙여자중학교,중학교,서울특별시 서대문구 북아현로11가길 7,37.5628641,126.9531684
정원여자중학교,중학교,서울특별시 서대문구 연희로37안길 51,37.5850101,126.9332912
이화여자대학교사범대학부속이화금란중학교,중학교,서울특별시 서대문구 성산로 520,37.56312436,126.9443854
명지중학교,중학교,서울특별시 서대문구 명지2길 56,37.5848709,126.9270773
서울여자중학교,중학교,서울특별시 마포구 백범로25길 34,37.5478121,126.9485819
성사중학교,중학교,서울특별시 마포구 모래내로9길 16,37.5682832,126.9133116
창천중학교,중학교,서울특별시 마포구 백범로1길 56,37.5548546,126.9393201
성서중학교,중학교,서울특별시 마포구 성산로4길 42,37.5626372,126.9085186
신수중학교,중학교,서울특별시 마포구 신수로 49,37.546446,126.9336333
아현중학교,중학교,서울특별시 마포구 마포대로 247,37.5564008,126.9565001
중암중학교,중학교,서울특별시 마포구 월드컵북로38길 25,37.5723226,126.9033873
성산중학교,중학교,서울특별시 마포구 성지1길 32-13,37.547454,126.9160619
상암중학교,중학교,서울특별시 마포구 상암산로1길 26,37.5788784,126.8878697
숭문중학교,중학교,서울특별시 마포구 숭문길 99,37.55088946,126.9457706
광성중학교,중학교,서울특별시 마포구 신수로8길 20,37.5486226,126.9363687
경성중학교,중학교,서울특별시 마포구 성미산로 111,37.56350983,126.9191674
홍익대학교사범대학부속여자중학교,중학교,서울특별시 마포구 성미산로 51,37.5601359,126.9134939
동도중학교,중학교,서울특별시 마포구 백범로 139,37.5463299,126.9473737
구일중학교,중학교,서울특별시 구로구 구일로 90-133,37.4950996,126.8737218
신도림중학교,중학교,서울특별시 구로구 경인로63길 74,37.5108953,126.8853644
경인중학교,중학교,서울특별시 구로구 경인로 301,37.4982046,126.8542405
오남중학교,중학교,서울특별시 구로구 오리로9길 25,37.4871448,126.8359411
개봉중학교,중학교,서울특별시 구로구 고척로21나길 68,37.5029403,126.8422137
개웅중학교,중학교,서울특별시 구로구 개봉로11길 81,37.4873146,126.851246
고척중학교,중학교,서울특별시 구로구 중앙로3길 20,37.5002646,126.861981
오류중학교,중학교,서울특별시 구로구 고척로27바길 19,37.5078957,126.8461243
구로중학교,중학교,서울특별시 구로구 구로중앙로 48,37.4946496,126.8909153
영림중학교,중학교,서울특별시 구로구 가마산로27길 17,37.4975539,126.8903736
영서중학교,중학교,서울특별시 구로구 도림로20길 35,37.4889819,126.8942198
우신중학교,중학교,서울특별시 구로구 부일로 917,37.4951383,126.8268765
시흥중학교,중학교,서울특별시 금천구 시흥대로38길 60,37.4460493,126.9051484
문성중학교,중학교,서울특별시 금천구 독산로102길 78,37.4754183,126.9079037
세일중학교,중학교,서울특별시 금천구 시흥대로147길 34,37.4746253,126.8954859
가산중학교,중학교,서울특별시 금천구 시흥대로115길 48,37.4685225,126.8943615
난곡중학교,중학교,서울특별시 금천구 문성로 67,37.4778025,126.9107419
안천중학교,중학교,서울특별시 금천구 한내로 69-44,37.4593606,126.8874105
문일중학교,중학교,서울특별시 금천구 시흥대로47길 45,37.4493523,126.8984231
동일중학교,중학교,서울특별시 금천구 탑골로10길 45,37.45167193,126.9168874
영원중학교,중학교,서울특별시 영등포구 영등포로62길 31,37.5150593,126.913731
당산중학교,중학교,서울특별시 영등포구 버드나루로 160,37.5314041,126.9075733
당산서중학교,중학교,서울특별시 영등포구 당산로41길 12,37.5322632,126.8985048
문래중학교,중학교,서울특별시 영등포구 선유서로13길 6,37.5202148,126.884443
선유중학교,중학교,서울특별시 영등포구 선유로 213,37.5328432,126.8942213
영남중학교,중학교,서울특별시 영등포구 대림로31나길 17,37.4976237,126.8958925
대림중학교,중학교,서울특별시 영등포구 시흥대로185길 6,37.4920503,126.9077656
양화중학교,중학교,서울특별시 영등포구 당산로 56,37.5197727,126.8960538
대영중학교,중학교,서울특별시 영등포구 도림로80가길 14,37.503337,126.9049773
윤중중학교,중학교,서울특별시 영등포구 여의동로3길 3,37.5189785,126.923703
여의도중학교,중학교,서울특별시 영등포구 국제금융로7길 46,37.5239481,126.9357145
북서울중학교,중학교,서울특별시 도봉구 도봉로169가길 33,37.6813005,127.0430239
도봉중학교,중학교,서울특별시 도봉구 마들로 671,37.6707284,127.0459742
신방학중학교,중학교,서울특별시 도봉구 시루봉로 156,37.6636445,127.0295168
방학중학교,중학교,서울특별시 도봉구 시루봉로 188,37.6653358,127.0316064
창동중학교,중학교,서울특별시 도봉구 방학로 32,37.6629833,127.0497887
백운중학교,중학교,서울특별시 도봉구 도봉로129길 50,37.6563724,127.0358991
신도봉중학교,중학교,서울특별시 도봉구 도봉로115길 16,37.6492547,127.0331989
효문중학교,중학교,서울특별시 도봉구 우이천로 432,37.6520737,127.0183774
노곡중학교,중학교,서울특별시 도봉구 노해로70길 95,37.6485909,127.053561
창일중학교,중학교,서울특별시 도봉구 노해로66길 60,37.6488018,127.0465188
창북중학교,중학교,서울특별시 도봉구 노해로62길 33,37.6494708,127.0385766
정의여자중학교,중학교,서울특별시 도봉구 노해로49길 69,37.6529105,127.0318063
선덕중학교,중학교,서울특별시 도봉구 시루봉로 53,37.655351,127.0268289
상원중학교,중학교,서울특별시 노원구 수락산로 182,37.6715436,127.0595044
상경중학교,중학교,서울특별시 노원구 동일로227길 61,37.6670457,127.0533357
하계중학교,중학교,서울특별시 노원구 노원로 261-8,37.6410862,127.0719341
불암중학교,중학교,서울특별시 노원구 한글비석로5길 45,37.6459258,127.0735521
공릉중학교,중학교,서울특별시 노원구 노원로1길 42,37.6222083,127.0837653
태랑중학교,중학교,서울특별시 노원구 화랑로51나길 51,37.6266378,127.0918527
한천중학교,중학교,서울특별시 노원구 공릉로 265,37.63131305,127.0724683
상계중학교,중학교,서울특별시 노원구 노원로 398,37.6526466,127.0688583
온곡중학교,중학교,서울특별시 노원구 노원로 492,37.6602624,127.0644701
노원중학교,중학교,서울특별시 노원구 동일로213길 26,37.6491471,127.0594579
노일중학교,중학교,서울특별시 노원구 동일로231길 24,37.6725826,127.0539025
수락중학교,중학교,서울특별시 노원구 동일로 1729,37.6827948,127.0545923
녹천중학교,중학교,서울특별시 노원구 월계로 376,37.6313108,127.0620087
월계중학교,중학교,서울특별시 노원구 월계로45가길 54,37.6305995,127.0523673
신창중학교,중학교,서울특별시 노원구 월계로45길 92,37.6283226,127.0474202
상계제일중학교,중학교,서울특별시 노원구 덕릉로86길 29-15,37.661342,127.0777604
중계중학교,중학교,서울특별시 노원구 덕릉로76길 23,37.6550962,127.0754735
을지중학교,중학교,서울특별시 노원구 덕릉로 580,37.6495848,127.071707
중원중학교,중학교,서울특별시 노원구 공릉로 420,37.6441977,127.0680699
중평중학교,중학교,서울특별시 노원구 동일로203길 87,37.6369404,127.062228
신상중학교,중학교,서울특별시 노원구 동일로216길 42,37.6516104,127.0636359
광운중학교,중학교,서울특별시 노원구 광운로1길 24,37.6208454,127.0561467
염광중학교,중학교,서울특별시 노원구 월계로45가길 9,37.6302165,127.0492435
상명중학교,중학교,서울특별시 노원구 덕릉로 553,37.6494211,127.0682006
청원중학교,중학교,서울특별시 노원구 한글비석로 506,37.6660284,127.0620129
재현중학교,중학교,서울특별시 노원구 덕릉로82길 64,37.6615474,127.0814504
서울대학교사범대학부설여자중학교,중학교,서울특별시 종로구 대학로 64,37.5770935,127.003843
청운중학교,중학교,서울특별시 종로구 창의문로 51,37.5896155,126.970349
대신중학교,중학교,서울특별시 종로구 사직로 9,37.5734256,126.9618971
동성중학교,중학교,서울특별시 종로구 대학로 156,37.5850524,127.0024292
경신중학교,중학교,서울특별시 종로구 혜화로 74,37.5914502,127.0006702
덕성여자중학교,중학교,서울특별시 종로구 율곡로3길 49,37.5779699,126.9817133
배화여자중학교,중학교,서울특별시 종로구 필운대로1길 34,37.57849658,126.9668889
상명대학교사범대학부속여자중학교,중학교,서울특별시 종로구 홍지문2길 20,37.6041771,126.9556929
중앙중학교,중학교,서울특별시 종로구 창덕궁길 164,37.584897,126.9870352
창덕여자중학교,중학교,서울특별시 중구 정동길 22,37.5664694,126.9695822
금호여자중학교,중학교,서울특별시 중구 청구로 6,37.5578679,127.0200384
덕수중학교,중학교,서울특별시 중구 마른내로9길 10,37.5653267,126.9972317
장원중학교,중학교,서울특별시 중구 동호로15길 93-34,37.5537683,127.0063639
한양중학교,중학교,서울특별시 중구 을지로 299,37.5653699,127.0118163
대경중학교,중학교,서울특별시 중구 매봉18길 111,37.55669583,127.0175331
장충중학교,중학교,서울특별시 중구 동호로15길 93,37.5531662,127.0065905
용산중학교,중학교,서울특별시 용산구 두텁바위로 74,37.5463224,126.9810267
선린중학교,중학교,서울특별시 용산구 원효로97길 33-4,37.5427169,126.9663628
한강중학교,중학교,서울특별시 용산구 녹사평대로 73,37.523952,126.9923454
용강중학교,중학교,서울특별시 용산구 이촌로65가길 91,37.5211849,126.9758922
오산중학교,중학교,서울특별시 용산구 보광로7길 17,37.52378179,127.0008688
배문중학교,중학교,서울특별시 용산구 효창원로 258,37.54991971,126.9639049
신광여자중학교,중학교,서울특별시 용산구 청파로 263,37.5431703,126.9699957
보성여자중학교,중학교,서울특별시 용산구 신흥로3가길 66,37.5426751,126.9844016
성심여자중학교,중학교,서울특별시 용산구 원효로19길 49,37.5341025,126.9542291
방산중학교,중학교,서울특별시 송파구 오금로29길 31,37.5091513,127.1219039
서울체육중학교,중학교,서울특별시 송파구 강동대로 232,37.5216734,127.130579
오륜중학교,중학교,서울특별시 송파구 양재대로 1242,37.5161458,127.1388726
가원중학교,중학교,서울특별시 송파구 중대로10길 40-18,37.490634,127.1230469
문정중학교,중학교,서울특별시 송파구 문정로 73,37.4885685,127.1299473
신천중학교,중학교,서울특별시 송파구 백제고분로 11,37.5162057,127.0783933
잠신중학교,중학교,서울특별시 송파구 잠실로 12,37.5158407,127.0876619
잠실중학교,중학교,서울특별시 송파구 올림픽로35길 130,37.5178192,127.0986647
석촌중학교,중학교,서울특별시 송파구 송이로15길 13,37.5011612,127.1212477
송파중학교,중학교,서울특별시 송파구 동남로 203,37.4960117,127.1297717
거원중학교,중학교,서울특별시 송파구 양산로2길 30,37.4874893,127.1465347
방이중학교,중학교,서울특별시 송파구 오금로11길 64,37.5149532,127.113231
가락중학교,중학교,서울특별시 송파구 송이로 45,37.5026324,127.1186676
세륜중학교,중학교,서울특별시 송파구 양재대로72길 41,37.5085227,127.1312179
오금중학교,중학교,서울특별시 송파구 오금로35길 20,37.5050018,127.1282173
오주중학교,중학교,서울특별시 송파구 동남로 281,37.50166,127.136224
풍납중학교,중학교,서울특별시 송파구 올림픽로43길 20,37.5255375,127.1159443
풍성중학교,중학교,서울특별시 송파구 강동대로2길 27,37.5255948,127.1127759
아주중학교,중학교,서울특별시 송파구 올림픽로4길 69,37.50522875,127.0765489
문현중학교,중학교,서울특별시 송파구 충민로 99,37.4805468,127.1279339
보성중학교,중학교,서울특별시 송파구 양재대로 1278,37.5195022,127.1351642
배명중학교,중학교,서울특별시 송파구 삼학사로 11,37.4984761,127.0955809
보인중학교,중학교,서울특별시 송파구 오금로49길 18,37.497266,127.1388757
영파여자중학교,중학교,서울특별시 송파구 올림픽로 565,37.5326565,127.1202571
일신여자중학교,중학교,서울특별시 송파구 송파대로38길 8,37.5017771,127.1135991
정신여자중학교,중학교,서울특별시 송파구 올림픽로4길 16,37.5091964,127.0727415
강명중학교,중학교,서울특별시 강동구 상일로12길 56,37.55559451,127.1748984
천일중학교,중학교,서울특별시 강동구 천중로 57,37.5458932,127.1275908
둔촌중학교,중학교,서울특별시 강동구 진황도로61길 25-30,37.5304436,127.145921
강동중학교,중학교,서울특별시 강동구 풍산로 237,37.5694623,127.177855
고덕중학교,중학교,서울특별시 강동구 동남로82길 94,37.5601307,127.1610289
명일중학교,중학교,서울특별시 강동구 양재대로156길 57,37.557063,127.1477463
신명중학교,중학교,서울특별시 강동구 명일로24길 25,37.54182637,127.1492982
한산중학교,중학교,서울특별시 강동구 풍성로 251,37.5287123,127.1402895
성내중학교,중학교,서울특별시 강동구 성안로7길 36,37.529222,127.1296609
신암중학교,중학교,서울특별시 강동구 고덕로 65,37.555955,127.1330777
강일중학교,중학교,서울특별시 강동구 고덕로27길 12,37.5551525,127.1382586
천호중학교,중학교,서울특별시 강동구 상암로 153,37.5466448,127.1392699
동신중학교,중학교,서울특별시 강동구 진황도로 72,37.536407,127.1343241
배재중학교,중학교,서울특별시 강동구 고덕로 227,37.5558123,127.1504916
동북중학교,중학교,서울특별시 강동구 강동대로 305,37.5200101,127.1406733
상일여자중학교,중학교,서울특별시 강동구 천호대로219길 61,37.54795369,127.1702183
성덕여자중학교,중학교,서울특별시 강동구 구천면로 396,37.5495933,127.1425564
한영중학교,중학교,서울특별시 강동구 동남로 832,37.5489092,127.1581466
목운중학교,중학교,서울특별시 양천구 목동동로 235,37.5269022,126.8730106
양동중학교,중학교,서울특별시 양천구 목동중앙북로 49,37.5479348,126.8691419
신목중학교,중학교,서울특별시 양천구 목동중앙로 88,37.5368606,126.8728552
신서중학교,중학교,서울특별시 양천구 중앙로 206,37.51596581,126.8550154
목일중학교,중학교,서울특별시 양천구 목동동로8길 70,37.5133313,126.8737628
신남중학교,중학교,서울특별시 양천구 중앙로29길 109,37.520554,126.8478926
신화중학교,중학교,서울특별시 양천구 남부순환로29길 35,37.5406168,126.8300275
신월중학교,중학교,서울특별시 양천구 남부순환로29길 25,37.5406576,126.8285666
신원중학교,중학교,서울특별시 양천구 가로공원로55길 19,37.5367988,126.8238344
양서중학교,중학교,서울특별시 양천구 남부순환로 380,37.5322157,126.8291403
양강중학교,중학교,서울특별시 양천구 중앙로 319,37.5246363,126.849861
양천중학교,중학교,서울특별시 양천구 지양로7길 32,37.5195099,126.8307371
강신중학교,중학교,서울특별시 양천구 남부순환로 604,37.5150787,126.8388714
목동중학교,중학교,서울특별시 양천구 목동동로 172,37.5206085,126.8717016
금옥중학교,중학교,서울특별시 양천구 신정로 213,37.5106219,126.8442611
월촌중학교,중학교,서울특별시 양천구 목동서로 31,37.5375617,126.882725
영도중학교,중학교,서울특별시 양천구 목동중앙남로 27,37.5364895,126.8663661
양정중학교,중학교,서울특별시 양천구 안양천로 1039,37.5347501,126.8871706
봉영여자중학교,중학교,서울특별시 양천구 목동동로2길 68,37.5090728,126.8607466
등명중학교,중학교,서울특별시 강서구 공항대로39길 39,37.5601467,126.8433052
성재중학교,중학교,서울특별시 강서구 허준로 36,37.5692295,126.8452929
삼정중학교,중학교,서울특별시 강서구 금낭화로 210,37.581086,126.8108847
수명중학교,중학교,서울특별시 강서구 수명로2길 16,37.5486465,126.8236662
공진중학교,중학교,서울특별시 강서구 양천로55길 56,37.5664762,126.851037
경서중학교,중학교,서울특별시 강서구 양천로59길 31,37.56124257,126.8577618
공항중학교,중학교,서울특별시 강서구 방화대로 241,37.5624596,126.8153399
송정중학교,중학교,서울특별시 강서구 남부순환로 121,37.5537316,126.8150759
백석중학교,중학교,서울특별시 강서구 등촌로51나길 35,37.5483517,126.858808
방화중학교,중학교,서울특별시 강서구 개화동로27길 9,37.5651074,126.8068782
방원중학교,중학교,서울특별시 강서구 금낭화로 268,37.5760462,126.8088127
염창중학교,중학교,서울특별시 강서구 양천로67가길 83,37.5539218,126.8717382
염경중학교,중학교,서울특별시 강서구 양천로69길 35,37.5540683,126.8707547
화원중학교,중학교,서울특별시 강서구 강서로17나길 86,37.5363887,126.8425137
등원중학교,중학교,서울특별시 강서구 화곡로65길 50,37.5597222,126.851607
마포중학교,중학교,서울특별시 강서구 화곡로 403,37.55998993,126.8531328
화곡중학교,중학교,서울특별시 강서구 강서로45길 70,37.5488204,126.8328267
명덕여자중학교,중학교,서울특별시 강서구 강서로47길 34-10,37.5536011,126.834718
신정여자중학교,중학교,서울특별시 강서구 등촌로13아길 20,37.5380245,126.8568925
덕원중학교,중학교,서울특별시 강서구 강서로45길 91-44,37.5485816,126.8290111
등촌중학교,중학교,서울특별시 강서구 공항대로 484-12,37.552641,126.8594058
반포중학교,중학교,서울특별시 서초구 신반포로 67,37.5030439,126.9918514
이수중학교,중학교,서울특별시 서초구 방배중앙로3길 32,37.4809574,126.9903022
경원중학교,중학교,서울특별시 서초구 신반포로33길 39,37.5107518,127.0089613
원촌중학교,중학교,서울특별시 서초구 사평대로45길 10,37.506062,127.0139388
신반포중학교,중학교,서울특별시 서초구 신반포로19길 26,37.5060693,126.995876
방배중학교,중학교,서울특별시 서초구 동광로 144,37.4944786,126.9982545
서일중학교,중학교,서울특별시 서초구 서운로21길 2,37.4990561,127.0221387
서운중학교,중학교,서울특별시 서초구 서운로 115,37.493993,127.0247303
서초중학교,중학교,서울특별시 서초구 반포대로13길 48,37.4854122,127.0087082
언남중학교,중학교,서울특별시 서초구 동산로 55,37.4724059,127.0444116
신동중학교,중학교,서울특별시 서초구 나루터로 27,37.5167005,127.0129459
세화여자중학교,중학교,서울특별시 서초구 신반포로 56-7,37.5018559,126.9922636
동덕여자중학교,중학교,서울특별시 서초구 효령로2길 123-5,37.4759144,126.9927567
서문여자중학교,중학교,서울특별시 서초구 동광로12길 84,37.4885743,126.985083
언북중학교,중학교,서울특별시 강남구 도산대로38길 27,37.51928,127.033073
신사중학교,중학교,서울특별시 강남구 압구정로 123,37.5247079,127.02115
대왕중학교,중학교,서울특별시 강남구 광평로20길 7,37.483438,127.0873271
대청중학교,중학교,서울특별시 강남구 양재천로 321,37.4905203,127.0583895
구룡중학교,중학교,서울특별시 강남구 선릉로 103,37.4862777,127.0560795
대명중학교,중학교,서울특별시 강남구 역삼로87길 26,37.5063402,127.0608974
대치중학교,중학교,서울특별시 강남구 남부순환로378길 39,37.4845654,127.0472825
도곡중학교,중학교,서울특별시 강남구 언주로57길 31,37.4923472,127.0450882
언주중학교,중학교,서울특별시 강남구 선릉로116길 57,37.51465442,127.0466835
봉은중학교,중학교,서울특별시 강남구 영동대로128길 59,37.5189411,127.0621196
수서중학교,중학교,서울특별시 강남구 광평로59길 57,37.4910655,127.1023885
신구중학교,중학교,서울특별시 강남구 압구정로36길 17,37.5273302,127.0322082
압구정중학교,중학교,서울특별시 강남구 압구정로 225,37.5302105,127.0329599
역삼중학교,중학교,서울특별시 강남구 도곡로43길 10,37.4956447,127.0490787
청담중학교,중학교,서울특별시 강남구 압구정로61길 36,37.5285802,127.0454332
개원중학교,중학교,서울특별시 강남구 영동대로 101,37.4918658,127.071402
휘문중학교,중학교,서울특별시 강남구 역삼로 541,37.504951,127.0620662
단국대학교사범대학부속중학교,중학교,서울특별시 강남구 도곡로64길 21,37.4953357,127.0564936
중동중학교,중학교,서울특별시 강남구 일원로8길 37,37.488319,127.0786207
숙명여자중학교,중학교,서울특별시 강남구 남부순환로 2807,37.4907295,127.0533366
진선여자중학교,중학교,서울특별시 강남구 선릉로85길 27,37.501754,127.0476387
은성중학교,중학교,서울특별시 강남구 남부순환로359길 36,37.4879414,127.0359252
강남중학교,중학교,서울특별시 동작구 대방동15길 29,37.50276353,126.923345
상현중학교,중학교,서울특별시 동작구 사당로2길 2-19,37.4939896,126.9603553
국사봉중학교,중학교,서울특별시 동작구 양녕로20길 20,37.4935736,126.9441046
동작중학교,중학교,서울특별시 동작구 동작대로39가길 83,37.4949969,126.9772383
상도중학교,중학교,서울특별시 동작구 사당로2가길 72,37.4908204,126.961525
영등포중학교,중학교,서울특별시 동작구 등용로8길 5,37.50905578,126.9347349
사당중학교,중학교,서울특별시 동작구 사당로9가길 58,37.4876148,126.9688695
남성중학교,중학교,서울특별시 동작구 남부순환로269길 166,37.4789892,126.972489
장승중학교,중학교,서울특별시 동작구 장승배기로10가길 25,37.5031484,126.9408336
강현중학교,중학교,서울특별시 동작구 상도로13라길 22,37.5032309,126.9314655
문창중학교,중학교,서울특별시 동작구 여의대방로22나길 40,37.4958029,126.921645
대방중학교,중학교,서울특별시 동작구 여의대방로10길 24,37.4952932,126.913764
동양중학교,중학교,서울특별시 동작구 흑석로9길 94,37.5101255,126.9562366
성남중학교,중학교,서울특별시 동작구 대방동길 74,37.50528121,126.9266132
숭의여자중학교,중학교,서울특별시 동작구 여의대방로36길 79,37.5073276,126.9292344
중앙대학교사범대학부속중학교,중학교,서울특별시 동작구 서달로 124,37.50362915,126.9617331
봉림중학교,중학교,서울특별시 관악구 장군봉길 72,37.4806354,126.9381575
당곡중학교,중학교,서울특별시 관악구 봉천로13길 101,37.4919353,126.9330422
구암중학교,중학교,서울특별시 관악구 성현로 53,37.4925845,126.9485751
봉원중학교,중학교,서울특별시 관악구 관악로24가길 15,37.4840797,126.9583607
관악중학교,중학교,서울특별시 관악구 남부순환로237길 60,37.4808692,126.9618525
인헌중학교,중학교,서울특별시 관악구 인헌9길 35,37.4729052,126.9695872
신관중학교,중학교,서울특별시 관악구 신림로48길 17-16,37.479929,126.9344578
신림중학교,중학교,서울특별시 관악구 신림로 40,37.4705384,126.9453094
삼성중학교,중학교,서울특별시 관악구 신림로3가길 39-24,37.4673643,126.9428252
난우중학교,중학교,서울특별시 관악구 난곡로16길 32,37.4666807,126.9228102
미성중학교,중학교,서울특별시 관악구 문성로16길 40,37.4754058,126.9122182
남서울중학교,중학교,서울특별시 관악구 남부순환로172길 97,37.48213616,126.921037
남강중학교,중학교,서울특별시 관악구 난곡로34길 80,37.4719974,126.9247473
서울문영여자중학교,중학교,서울특별시 관악구 관악로 85,37.4731302,126.9513293
광신중학교,중학교,서울특별시 관악구 광신길 141,37.4651411,126.9256312
성보중학교,중학교,서울특별시 관악구 남부순환로156길 39,37.4801177,126.9207947
무학중학교,중학교,서울특별시 성동구 행당로 120,37.5576839,127.0319747
광희중학교,중학교,서울특별시 성동구 독서당로62길 46,37.5511529,127.0339817
성수중학교,중학교,서울특별시 성동구 서울숲길 18,37.547981,127.0387013
경수중학교,중학교,서울특별시 성동구 뚝섬로13길 14,37.53950922,127.0592721
동마중학교,중학교,서울특별시 성동구 마조로11길 18,37.5626557,127.0403012
마장중학교,중학교,서울특별시 성동구 마장로35나길 31,37.5682297,127.042205
경일중학교,중학교,서울특별시 성동구 성수일로 27,37.5435875,127.0480483
성원중학교,중학교,서울특별시 성동구 성덕정9가길 13,37.5393617,127.0513099
옥정중학교,중학교,서울특별시 성동구 한림말길 11,37.5414774,127.0125119
행당중학교,중학교,서울특별시 성동구 왕십리로 189,37.5544241,127.041886
한양대학교사범대학부속중학교,중학교,서울특별시 성동구 마조로 42,37.56191893,127.042326
자양중학교,중학교,서울특별시 광진구 뚝섬로41길 33,37.5352283,127.0745207
광장중학교,중학교,서울특별시 광진구 광장로1길 1,37.5471908,127.1017601
양진중학교,중학교,서울특별시 광진구 워커힐로 32,37.5444966,127.0983485
광남중학교,중학교,서울특별시 광진구 아차산로70길 17-62,37.5404965,127.1013527
신양중학교,중학교,서울특별시 광진구 자양강변길 73,37.5334046,127.0631265
광양중학교,중학교,서울특별시 광진구 자양로3길 7,37.5301959,127.0860302
광진중학교,중학교,서울특별시 광진구 뚝섬로64길 45,37.5322529,127.0899425
용곡중학교,중학교,서울특별시 광진구 용마산로22길 76,37.5659416,127.0889488
구의중학교,중학교,서울특별시 광진구 광나루로30길 80,37.542871,127.0788098
동국대학교사범대학부속여자중학교,중학교,서울특별시 광진구 광나루로36길 47,37.5425112,127.0867784
대원국제중학교,중학교,서울특별시 광진구 용마산로22길 26,37.563079,127.0889497
건국대학교사범대학부속중학교,중학교,서울특별시 광진구 자양로 145-1,37.54172317,127.0815966
길음중학교,중학교,서울특별시 성북구 길음로 144,37.613752,127.0170477
서울대학교사범대학부설중학교,중학교,서울특별시 성북구 월곡로 36,37.59581903,127.0391338
삼선중학교,중학교,서울특별시 성북구 동소문로3길 69,37.5911454,127.0079042
월곡중학교,중학교,서울특별시 성북구 장월로 6,37.6067125,127.0480815
숭곡중학교,중학교,서울특별시 성북구 종암로 208,37.6084237,127.0313391
석관중학교,중학교,서울특별시 성북구 한천로 526,37.6081903,127.0664388
개운중학교,중학교,서울특별시 성북구 북악산로 935,37.5944775,127.0248807
장위중학교,중학교,서울특별시 성북구 장위로4길 70,37.6113882,127.0415045
북악중학교,중학교,서울특별시 성북구 정릉로12길 41,37.6067612,127.0017022
종암중학교,중학교,서울특별시 성북구 종암로5길 80-17,37.5929663,127.0317443
고명중학교,중학교,서울특별시 성북구 북악산로 870,37.5975051,127.0199016
용문중학교,중학교,서울특별시 성북구 인촌로17가길 46,37.5881284,127.0250507
홍익대학교사범대학부속중학교,중학교,서울특별시 성북구 성북로14가길 23,37.5940995,127.0032562
남대문중학교,중학교,서울특별시 성북구 한천로95길 28,37.6186278,127.0557873
동구여자중학교,중학교,서울특별시 성북구 성북로8길 71,37.5935994,127.0071027
한성여자중학교,중학교,서울특별시 성북구 삼선교로16길 118,37.58200014,127.0113123
성신여자중학교,중학교,서울특별시 성북구 북악산로 918,37.5938951,127.0232532
고려대학교사범대학부속중학교,중학교,서울특별시 성북구 정릉로 161,37.6098269,127.001572
수송중학교,중학교,서울특별시 강북구 한천로122길 21,37.6364725,127.0339379
강북중학교,중학교,서울특별시 강북구 한천로150길 67,37.6449188,127.0259441
삼각산중학교,중학교,서울특별시 강북구 삼양로19길 141,37.6161958,127.0146577
미양중학교,중학교,서울특별시 강북구 인수봉로 39,37.6232973,127.0122428
번동중학교,중학교,서울특별시 강북구 오현로35길 87,37.6325721,127.0362701
인수중학교,중학교,서울특별시 강북구 인수봉로75길 10,37.6438503,127.0099435
수유중학교,중학교,서울특별시 강북구 인수봉로37길 40,37.631337,127.0109264
화계중학교,중학교,서울특별시 강북구 화계사길 63,37.63251698,127.0097112
서라벌중학교,중학교,서울특별시 강북구 삼양로155길 37-9,37.6568687,127.0111715
신일중학교,중학교,서울특별시 강북구 솔매로49길 20,37.6282824,127.0282661
창문여자중학교,중학교,서울특별시 강북구 월계로 61,37.6131144,127.036282
성암여자중학교,중학교,서울특별시 강북구 도봉로29길 52,37.6207774,127.0244484
영훈국제중학교,중학교,서울특별시 강북구 도봉로13가길 19,37.613765,127.0278332
마곡중학교,중학교,서울특별시 강서구 마곡중앙5로 58,37.5679071,126.8214007
천왕중학교,중학교,서울특별시 구로구 천왕로 63,37.48265604,126.8373334
가재울중학교,중학교,서울특별시 서대문구 수색로 100-75,37.57517285,126.9099537
영동중학교,중학교,서울특별시 서초구 성촌길 14,37.4659194,127.025224
환일중학교,중학교,서울특별시 중구 환일길 47,37.5538139,126.9621659
세곡중학교,중학교,서울특별시 강남구 자곡로 81,37.4715425,127.0922007
송례중학교,중학교,서울특별시 송파구 위례순환로 429,37.4777414,127.1396227
한울중학교,중학교,서울특별시 금천구 독산로50길 60,37.462335,126.9074
내곡중학교,중학교,서울특별시 서초구 청계산로7길 9-20,37.45200217,127.0544427
해누리중학교,중학교,서울특별시 송파구 송파대로37길 95,37.49761178,127.1025328
